"locator_domain","page_url","location_name","street_address","city","state","zip","country_code","store_number","phone","location_type","latitude","longitude","hours_of_operation"
"holidayinn.com","https://www.ihg.com/holidayinn/hotels/us/en/calgary/yycmc/hoteldetail","Holiday Inn Calgary-Macleod Trail South","4206 Macleod Trail South","Calgary","Alberta","T2G 2R7","CA","yycmc","1-403-2872700","Hotel","51.01652","-114.06401","<MISSING>"
"holidayinn.com","https://www.ihg.com/holidayinn/hotels/us/en/calgary/yycat/hoteldetail","Holiday Inn Calgary-Airport","1250 McKinnon Drive, N.E.","Calgary","Alberta","T2E 7T7","CA","yycat","1-403-2301999","Hotel","51.066","-114.0109","<MISSING>"
"holidayinn.com","https://www.ihg.com/holidayinn/hotels/us/en/calgary/yycdm/hoteldetail","Holiday Inn & Suites Calgary South - Conference Ctr","8360 Blackfoot Trail SE","Calgary","Alberta","T2J 7E1","CA","yycdm","1-403-4758561","Hotel","50.977988","-114.04798","<MISSING>"
"holidayinn.com","https://www.ihg.com/holidayinn/hotels/us/en/calgary/yycan/hoteldetail","Holiday Inn & Suites Calgary Airport North","20 Freeport Place NE","Calgary","Alberta","T3J-0T6","CA","yycan","1-403-2897800","Hotel","51.151911","-114.003804","<MISSING>"
"holidayinn.com","https://www.ihg.com/holidayinn/hotels/us/en/canmore/yyccm/hoteldetail","Holiday Inn Canmore","1 Silvertip Trail","Canmore","Alberta","T1W 2Z7","CA","yyccm","1-403-6094422","Hotel","51.09358","-115.34598","<MISSING>"
"holidayinn.com","https://www.ihg.com/holidayinn/hotels/us/en/edmonton/yegem/hoteldetail","Holiday Inn Conference Ctr Edmonton South","4485 Gateway Boulevard","Edmonton","Alberta","T6H 5C3","CA","yegem","1-780-4311100","Hotel","53.48207","-113.49156","<MISSING>"
"holidayinn.com","https://www.ihg.com/holidayinn/hotels/us/en/west-edmonton/yegwe/hoteldetail","Holiday Inn & Suites West Edmonton","11330 170th Street","West Edmonton","Alberta","T5S 2X1","CA","yegwe","1-780-4443110","Hotel","53.564413","-113.616786","<MISSING>"
"holidayinn.com","https://www.ihg.com/holidayinn/hotels/us/en/edmonton/yegso/hoteldetail","Holiday Inn Edmonton South - Evario Events","950 Parsons Road SW","Edmonton","Alberta","T6X 0J4","CA","yegso","1-780-7848500","Hotel","53.4242011","-113.4799457","<MISSING>"
"holidayinn.com","https://www.ihg.com/holidayinn/hotels/us/en/nisku/yegae/hoteldetail","Holiday Inn & Suites Edmonton Arpt - Conference Ctr","1100-4 Street","Nisku","Alberta","T9E 8E2","CA","yegae","1-780-9790839","Hotel","53.30986","-113.53711","<MISSING>"
"holidayinn.com","https://www.ihg.com/holidayinn/hotels/us/en/grande-prairie/yquab/hoteldetail","Holiday Inn & Suites Grande Prairie-Conference Ctr","9816 107 Street","Grande Prairie","Alberta","T8V 8E7","CA","yquab","1-780-4026886","Hotel","55.169456","-118.819112","<MISSING>"
"holidayinn.com","https://www.ihg.com/holidayinn/hotels/us/en/hinton/yhtca/hoteldetail","Holiday Inn Hinton","393 Gregg Avenue","Hinton","Alberta","T7V1N1","CA","yhtca","1-780-8653321","Hotel","53.39795","-117.59585","<MISSING>"
"holidayinn.com","https://www.ihg.com/holidayinn/hotels/us/en/lethbridge/yqlhi/hoteldetail","Holiday Inn Lethbridge","2375 MAYOR MAGRATH DRIVE SOUTH","Lethbridge","Alberta","T1K 7M1","CA","yqlhi","1-403-3805050","Hotel","49.67046","-112.79907","<MISSING>"
"holidayinn.com","https://www.ihg.com/holidayinn/hotels/us/en/lloydminster/yllsk/hoteldetail","Holiday Inn & Suites Lloydminster","5612 44th Street","Lloydminster","Alberta","T9V 0B6","CA","yllsk","1-780-8705050","Hotel","53.278029","-110.020358","<MISSING>"
"holidayinn.com","https://www.ihg.com/holidayinn/hotels/us/en/red-deer/yrdws/hoteldetail","Holiday Inn & Suites Red Deer South","33 Petrolia Drive – Gasoline Alley","Red Deer County","Alberta","T4E 1B3","CA","yrdws","1-403-3488485","Hotel","52.223328","-113.813766","<MISSING>"
"holidayinn.com","https://www.ihg.com/holidayinn/hotels/us/en/kamloops/ykabc/hoteldetail","Holiday Inn & Suites Kamloops","675 Tranquille Road","Kamloops","British Columbia","V2B 3J1","CA","ykabc","1-250-3768288","Hotel","50.696956","-120.361024","<MISSING>"
"holidayinn.com","https://www.ihg.com/holidayinn/hotels/us/en/north-vancouver/yvrnv/hoteldetail","Holiday Inn & Suites North Vancouver","700 Old Lillooet Road","North Vancouver","British Columbia","V7J2H5","CA","yvrnv","1-604-9853111","Hotel","49.31322","-123.02762","<MISSING>"
"holidayinn.com","https://www.ihg.com/holidayinn/hotels/us/en/vancouver/yvrdt/hoteldetail","Holiday Inn & Suites Vancouver Downtown","1110 Howe Street","Vancouver","British Columbia","V6Z1R2","CA","yvrdt","1-604-6842151","Hotel","49.27882","-123.12552","<MISSING>"
"holidayinn.com","https://www.ihg.com/holidayinn/hotels/us/en/vancouver/yvrbw/hoteldetail","Holiday Inn Vancouver-Centre (Broadway)","711 W. Broadway @ Heather Street","Vancouver","British Columbia","V5Z3Y2","CA","yvrbw","1-604-8790511","Hotel","49.26328","-123.11974","<MISSING>"
"holidayinn.com","https://www.ihg.com/holidayinn/hotels/us/en/richmond/yvrap/hoteldetail","Holiday Inn Vancouver Airport- Richmond","10720 Cambie Road","Richmond","British Columbia","V6X1K8","CA","yvrap","1-604-8211818","Hotel","49.1845","-123.106","<MISSING>"
"holidayinn.com","https://www.ihg.com/holidayinn/hotels/us/en/surrey/yvrsy/hoteldetail","Holiday Inn & Suites Surrey East - Cloverdale","17530 64th Ave.","Surrey","British Columbia","V3S 1Y9","CA","yvrsy","1-604-5768862","Hotel","49.118719","-122.73704","<MISSING>"
"holidayinn.com","https://www.ihg.com/holidayinn/hotels/us/en/osoyoos/ysyca/hoteldetail","Holiday Inn & Suites Osoyoos","7906 Main St., P.O. Box 1019","Osoyoos","British Columbia","V0H 1V0","CA","ysyca","1-250-4957223","Hotel","49.0285","-119.4575","<MISSING>"
"holidayinn.com","https://www.ihg.com/holidayinn/hotels/us/en/winnipeg/ywgcs/hoteldetail","Holiday Inn & Suites Winnipeg-Downtown","360 Colony Street","Winnipeg","Manitoba","R3B 2P3","CA","ywgcs","1-204-7867011","Hotel","49.89103","-97.15094","<MISSING>"
"holidayinn.com","https://www.ihg.com/holidayinn/hotels/us/en/winnipeg/ywgso/hoteldetail","Holiday Inn Winnipeg-South","1330 Pembina Hwy","Winnipeg","Manitoba","R3T2B4","CA","ywgso","1-204-4524747","Hotel","49.83973","-97.15203","<MISSING>"
"holidayinn.com","https://www.ihg.com/holidayinn/hotels/us/en/winnipeg/ywgap/hoteldetail","Holiday Inn Winnipeg - Airport West","2520 Portage Ave.","Winnipeg","Manitoba","R3J3T6","CA","ywgap","1-204-8854478","Hotel","49.8748","-97.2585","<MISSING>"
"holidayinn.com","https://www.ihg.com/holidayinn/hotels/us/en/st-johns/yytca/hoteldetail","Holiday Inn St. John's Conference Centre","180 Portugal Cove Road","St. Johns","Newfoundland and","A1B 2N2","CA","yytca","1-709-7220506","Hotel","47.5894","-52.7188","<MISSING>"
"holidayinn.com","https://www.ihg.com/holidayinn/hotels/us/en/sydney/yqyhi/hoteldetail","Holiday Inn Sydney - Waterfront","300 Esplanade","Sydney","Nova Scotia","B1P 1A7","CA","yqyhi","1-902-5627500","Hotel","46.13834","-60.195874","<MISSING>"
"holidayinn.com","https://www.ihg.com/holidayinn/hotels/us/en/barrie/yrrca/hoteldetail","Holiday Inn Barrie-Hotel & Conference Ctr","20 Fairview Road","Barrie","Ontario","L4N 4P3","CA","yrrca","1-705-7220555","Hotel","44.36185","-79.695057","<MISSING>"
"holidayinn.com","https://www.ihg.com/holidayinn/hotels/us/en/burlington/yurca/hoteldetail","Holiday Inn Burlington-Hotel & Conf Centre","3063 South Service Rd.","Burlington","Ontario","L7N3E9","CA","yurca","1-905-6394443","Hotel","43.353431","-79.800009","<MISSING>"
"holidayinn.com","https://www.ihg.com/holidayinn/hotels/us/en/oakville/yyzov/hoteldetail","Holiday Inn & Suites Oakville @ Bronte","2525 Wyecroft Road","Oakville","Ontario","L6L6P8","CA","yyzov","1-905-8471000","Hotel","43.407958","-79.735015","<MISSING>"
"holidayinn.com","https://www.ihg.com/holidayinn/hotels/us/en/oakville/yyzok/hoteldetail","Holiday Inn Oakville (Centre)","590 Argus Road","Oakville","Ontario","L6J 3J3","CA","yyzok","1-905-8425000","Hotel","43.458091","-79.684596","<MISSING>"
"holidayinn.com","https://www.ihg.com/holidayinn/hotels/us/en/mississauga/msgon/hoteldetail","Holiday Inn & Suites Mississauga West - Meadowvale","2565 Argentia Road","Mississauga","Ontario","L5N5V4","CA","msgon","1-905-5422121","Hotel","43.602","-79.758","<MISSING>"
"holidayinn.com","https://www.ihg.com/holidayinn/hotels/us/en/mississauga/yyzto/hoteldetail","Holiday Inn Mississauga Toronto West","100 Britannia Road East","Mississauga","Ontario","L4Z2G1","CA","yyzto","1-905-8905700","Hotel","43.628303","-79.677284","<MISSING>"
"holidayinn.com","https://www.ihg.com/holidayinn/hotels/us/en/guelph/yguca/hoteldetail","Holiday Inn Guelph Hotel & Conference Ctr","601 Scottsdale Drive","Guelph","Ontario","N1G3E7","CA","yguca","1-519-8360231 +0","Hotel","43.51634","-80.24043","<MISSING>"
"holidayinn.com","https://www.ihg.com/holidayinn/hotels/us/en/toronto/yyzia/hoteldetail","Holiday Inn Toronto International Airport","970 Dixon Road, Rexdale","Toronto","Ontario","M9W1J9","CA","yyzia","1-416-6757611","Hotel","43.6867","-79.5994","<MISSING>"
"holidayinn.com","https://www.ihg.com/holidayinn/hotels/us/en/toronto/yyzae/hoteldetail","Holiday Inn Toronto-Airport East","600 Dixon Road","Toronto","Ontario","M9W 1J1","CA","yyzae","1-416-2407511 +0","Hotel","43.69254","-79.57296","<MISSING>"
"holidayinn.com","https://www.ihg.com/holidayinn/hotels/us/en/st-catharines/ycmsa/hoteldetail","Holiday Inn & Suites St. Catharines Conf Ctr","327 Ontario Street","St. Catharines","Ontario","L2R5L3","CA","ycmsa","1-905-6882324","Hotel","43.170008","-79.26444","<MISSING>"
"holidayinn.com","https://www.ihg.com/holidayinn/hotels/us/en/kanata/yowow/hoteldetail","Holiday Inn & Suites Ottawa Kanata","101 Kanata Avenue","Kanata","Ontario","K2T 1E6","CA","yowow","1-613-2713057","Hotel","45.3111","-75.9075","<MISSING>"
"holidayinn.com","https://www.ihg.com/holidayinn/hotels/us/en/ottawa/yowqs/hoteldetail","Holiday Inn Ottawa Dwtn - Parliament Hill","402 Queen Street","Ottawa","Ontario","K1R5A7","CA","yowqs","1-613-2361133","Hotel","45.417713","-75.7066866","<MISSING>"
"holidayinn.com","https://www.ihg.com/holidayinn/hotels/us/en/gatineau/yowgn/hoteldetail","Holiday Inn Gatineau – Ottawa","7 boulevard du Casino","Gatineau","<MISSING>","J8Y 6V7","CA","yowgn","<MISSING>","Hotel","45.448291","-75.72954899999999","<MISSING>"
"holidayinn.com","https://www.ihg.com/holidayinn/hotels/us/en/ottawa/yowoe/hoteldetail","Holiday Inn Ottawa East","1199 Joseph Cyr Street","Ottawa","Ontario","K1J 7T4","CA","yowoe","1-613-7441060","Hotel","45.422468","-75.634908","<MISSING>"
"holidayinn.com","https://www.ihg.com/holidayinn/hotels/us/en/kingston/ygkca/hoteldetail","Holiday Inn Kingston-Waterfront","2 Princess Street","Kingston","Ontario","K7L1A2","CA","ygkca","1-613-5498400","Hotel","44.2311","-76.4791","<MISSING>"
"holidayinn.com","https://www.ihg.com/holidayinn/hotels/us/en/london/yxulo/hoteldetail","Holiday Inn & Suites London","855 Wellington Road South","London","Ontario","N6E 3N5","CA","yxulo","1-519-6687900","Hotel","42.942554","-81.225704","<MISSING>"
"holidayinn.com","https://www.ihg.com/holidayinn/hotels/us/en/toronto/yyzct/hoteldetail","Holiday Inn Toronto Downtown Centre","30 Carlton Street","Toronto","Ontario","M5B 2E9","CA","yyzct","1-416-9776655","Hotel","43.661405","-79.381431","<MISSING>"
"holidayinn.com","https://www.ihg.com/holidayinn/hotels/us/en/niagara-falls/iagon/hoteldetail","Holiday Inn Niagara Falls - by the Falls","5339 Murray Street","Niagara Falls","Ontario","L2G 2J3","CA","iagon","1-905-3561333 +100","Hotel","43.0836","-79.0828","<MISSING>"
"holidayinn.com","https://www.ihg.com/holidayinn/hotels/us/en/peterborough/ypqca/hoteldetail","Holiday Inn Peterborough-Waterfront","150 George St","Peterborough","Ontario","K9J 3G5","CA","ypqca","1-705-7431144","Hotel","44.2995","-78.3194","<MISSING>"
"holidayinn.com","https://www.ihg.com/holidayinn/hotels/us/en/sudbury/ysbrs/hoteldetail","Holiday Inn Sudbury","1696 Regent Street","Sudbury","Ontario","P3E 3Z8","CA","ysbrs","1-705-5223000","Hotel","46.456098","-81.006582","<MISSING>"
"holidayinn.com","https://www.ihg.com/holidayinn/hotels/us/en/windsor/yqgca/hoteldetail","Holiday Inn & Suites Windsor (Ambassador Bridge)","1855 Huron Church Road","Windsor","Ontario","N9C2L6","CA","yqgca","1-519-9661200","Hotel","42.2807","-83.0537","<MISSING>"
"holidayinn.com","https://www.ihg.com/holidayinn/hotels/us/en/laval/ymqlv/hoteldetail","Holiday Inn Laval - Montreal","2900 Boul Le Carrefour","Laval","Quebec","H7T 2K9","CA","ymqlv","1-450-6829000","Hotel","45.56933","-73.74799","<MISSING>"
"holidayinn.com","https://www.ihg.com/holidayinn/hotels/us/en/montreal/yulca/hoteldetail","Holiday Inn Montreal Centreville Downtown","999 rue Saint-Urbain","Montreal","Quebec","H2Z 0B4","CA","yulca","1-514-8789888","Hotel","45.506836","-73.559525","<MISSING>"
"holidayinn.com","https://www.ihg.com/holidayinn/hotels/us/en/montreal/yulcc/hoteldetail","Holiday Inn & Suites Montreal Centre-ville Ouest","1390, boulevard René-Lévesque Ouest","Montreal","Quebec","H3G 0E3","CA","yulcc","1-514-9357999","Hotel","45.495306","-73.573001","<MISSING>"
"holidayinn.com","https://www.ihg.com/holidayinn/hotels/us/en/longueuil/yulln/hoteldetail","Holiday Inn Montreal-Longueuil","900 Rue St. Charles East","Longueuil","Quebec","J4H 3Y2","CA","yulln","1-450-6468100","Hotel","45.5501","-73.49968","<MISSING>"
"holidayinn.com","https://www.ihg.com/holidayinn/hotels/us/en/pointe-claire/yulpc/hoteldetail","Holiday Inn & Suites Pointe-Claire Montreal Airport","6700 Trans Canada","Pointe Claire","Quebec","H9R1C2","CA","yulpc","1-514-6977110","Hotel","45.462","-73.826","<MISSING>"
"holidayinn.com","https://www.ihg.com/holidayinn/hotels/us/en/regina/yqrrs/hoteldetail","Holiday Inn & Suites Regina","1800 Prince of Wales Drive","Regina","Saskatchewan","S4Z 1A4","CA","yqrrs","1-306-7893883","Hotel","50.4495","-104.533","<MISSING>"
"holidayinn.com","https://www.ihg.com/holidayinn/hotels/us/en/saskatoon/yxeid/hoteldetail","Holiday Inn Saskatoon Downtown","101 Pacific Avenue","Saskatoon","Saskatchewan","S7K 1N8","CA","yxeid","1-306-9865000","Hotel","52.12932","-106.6681","<MISSING>"
"holidayinn.com","https://www.ihg.com/holidayinn/hotels/us/en/birmingham/bhmap/hoteldetail","Holiday Inn Birmingham-Airport","5000 Richard Arrington Jr Blvd N","Birmingham","Alabama","35212","US","bhmap","1-205-9091999","Hotel","33.5434","-86.761396","<MISSING>"
"holidayinn.com","https://www.ihg.com/holidayinn/hotels/us/en/hoover/bhmgb/hoteldetail","Holiday Inn Birmingham - Hoover","2901 JOHN HAWKINS PARKWAY","Hoover","Alabama","35244","US","bhmgb","1-205-6822901","Hotel","33.369844","-86.81716","<MISSING>"
"holidayinn.com","https://www.ihg.com/holidayinn/hotels/us/en/guin/habex/hoteldetail","Holiday Inn Guin","5750 Highway 44","Guin","Alabama","35563","US","habex","1-205-4684625","Hotel","34.010892","-87.839683","<MISSING>"
"holidayinn.com","https://www.ihg.com/holidayinn/hotels/us/en/huntsville/hsvrp/hoteldetail","Holiday Inn Huntsville-Research Park","5903 University Dr.","Huntsville","Alabama","35806","US","hsvrp","1-256-8300600","Hotel","34.740904","-86.666219","<MISSING>"
"holidayinn.com","https://www.ihg.com/holidayinn/hotels/us/en/mobile/mobhi/hoteldetail","Holiday Inn Mobile-Dwtn/Hist. District","301 Government Street","Mobile","Alabama","36602","US","mobhi","1-251-6940100","Hotel","30.689176","-88.044046","<MISSING>"
"holidayinn.com","https://www.ihg.com/holidayinn/hotels/us/en/mobile/mobar/hoteldetail","Holiday Inn Mobile - Airport","3630 Springhill Memorial Dr South","Mobile","Alabama","36608","US","mobar","1-251-3447446","Hotel","30.680378","-88.128645","<MISSING>"
"holidayinn.com","https://www.ihg.com/holidayinn/hotels/us/en/mobile/mobtl/hoteldetail","Holiday Inn Mobile West - I-10","5465 Hwy 90 W, Government Blvd","Mobile","Alabama","36619","US","mobtl","1-251-6665600","Hotel","30.585865","-88.169783","<MISSING>"
"holidayinn.com","https://www.ihg.com/holidayinn/hotels/us/en/montgomery/mgmhs/hoteldetail","Holiday Inn Montgomery Airport South","96 Folmar Parkway","Montgomery","Alabama","36105","US","mgmhs","1-334-2883858","Hotel","32.268573","-86.357231","<MISSING>"
"holidayinn.com","https://www.ihg.com/holidayinn/hotels/us/en/casa-grande/csaaz/hoteldetail","Holiday Inn Casa Grande","777 North Pinal Avenue","Casa Grande","Arizona","85122","US","csaaz","1-520-4263500","Hotel","32.880369","-111.757289","<MISSING>"
"holidayinn.com","https://www.ihg.com/holidayinn/hotels/us/en/chandler/phxch/hoteldetail","Holiday Inn Phoenix - Chandler","1200 West Ocotillo Road","Chandler","Arizona","85248","US","phxch","1-480-2032121","Hotel","33.2476","-111.872","<MISSING>"
"holidayinn.com","https://www.ihg.com/holidayinn/hotels/us/en/mesa/phxme/hoteldetail","Holiday Inn & Suites Phoenix-Mesa/Chandler","1600 South Country Club Drive","Mesa","Arizona","85210","US","phxme","1-480-9647000","Hotel","33.385489","-111.840169","<MISSING>"
"holidayinn.com","https://www.ihg.com/holidayinn/hotels/us/en/phoenix/phxaa/hoteldetail","Holiday Inn & Suites Phoenix Airport","3220 S. 48th Street","Phoenix","Arizona","85040","US","phxaa","1-480-5431700","Hotel","33.418326","-111.978712","<MISSING>"
"holidayinn.com","https://www.ihg.com/holidayinn/hotels/us/en/phoenix/phxff/hoteldetail","Holiday Inn & Suites Phoenix Airport North","1515 North 44th Street","Phoenix","Arizona","85008","US","phxff","1-602-2448800","Hotel","33.46439","-111.98703","<MISSING>"
"holidayinn.com","https://www.ihg.com/holidayinn/hotels/us/en/scottsdale/phxsa/hoteldetail","Holiday Inn & Suites Scottsdale North - Airpark","14255 North 87th Street","Scottsdale","Arizona","85260","US","phxsa","1-480-9226500","Hotel","33.614517","-111.893695","<MISSING>"
"holidayinn.com","https://www.ihg.com/holidayinn/hotels/us/en/phoenix/phxaz/hoteldetail","Holiday Inn Phoenix-West","1500 North 51st Avenue","Phoenix","Arizona","85043","US","phxaz","1-602-4849009","Hotel","33.464711","-112.169212","<MISSING>"
"holidayinn.com","https://www.ihg.com/holidayinn/hotels/us/en/glendale/phxbh/hoteldetail","Holiday Inn Glendale - Stadium & Ent Dist","6151 North 99th Avenue","Glendale","Arizona","85305","US","phxbh","1-602-6035800","Hotel","33.525843","-112.27183","<MISSING>"
"holidayinn.com","https://www.ihg.com/holidayinn/hotels/us/en/chinle/chnaz/hoteldetail","Holiday Inn Canyon De Chelly (Chinle)","Bia Route 7-Garcia Trading Post","Chinle","Arizona","86503","US","chnaz","1-928-6745000","Hotel","36.1065","-109.5477","<MISSING>"
"holidayinn.com","https://www.ihg.com/holidayinn/hotels/us/en/goodyear/phxnd/hoteldetail","Holiday Inn & Suites Goodyear - West Phoenix Area","1188 N. Dysart Road","Goodyear","Arizona","85395","US","phxnd","1-623-5471313","Hotel","33.459476","-112.3411","<MISSING>"
"holidayinn.com","https://www.ihg.com/holidayinn/hotels/us/en/yuma/yumaz/hoteldetail","Holiday Inn Yuma","1901 E. 18th Street","Yuma","Arizona","85365","US","yumaz","1-928-7829300","Hotel","32.6942","-114.6004","<MISSING>"
"holidayinn.com","https://www.ihg.com/holidayinn/hotels/us/en/blytheville/byhar/hoteldetail","Holiday Inn Blytheville","1121 East Main","Blytheville","Arkansas","72315","US","byhar","1-870-7635800","Hotel","35.927304","-89.892142","<MISSING>"
"holidayinn.com","https://www.ihg.com/holidayinn/hotels/us/en/jonesboro/jbrst/hoteldetail","Holiday Inn Jonesboro","2908 Gilmore Drive","Jonesboro","Arkansas","72401","US","jbrst","1-870-3335100","Hotel","35.808936","-90.673691","<MISSING>"
"holidayinn.com","https://www.ihg.com/holidayinn/hotels/us/en/little-rock/litlr/hoteldetail","Holiday Inn Little Rock-Presidential-Dwntn","600 Interstate 30","Little Rock","Arkansas","72202","US","litlr","1-501-3752100","Hotel","34.7418219","-92.2637317","<MISSING>"
"holidayinn.com","https://www.ihg.com/holidayinn/hotels/us/en/little-rock/liteb/hoteldetail","Holiday Inn Little Rock-Airport-Conf Ctr","3201 Bankhead Dr.","Little Rock","Arkansas","72206","US","liteb","1-501-4901000","Hotel","34.715135","-92.224234","<MISSING>"
"holidayinn.com","https://www.ihg.com/holidayinn/hotels/us/en/little-rock/litis/hoteldetail","Holiday Inn Little Rock West - Chenal Pkwy","10920 Financial Centre Parkway","Little Rock","Arkansas","72211","US","litis","1-501-2251075","Hotel","34.7515","-92.4149","<MISSING>"
"holidayinn.com","https://www.ihg.com/holidayinn/hotels/us/en/rogers/rgghs/hoteldetail","Holiday Inn & Suites Bentonville - Rogers","1803 S. 52nd Street","Rogers","Arkansas","72758","US","rgghs","1-479-8451300","Hotel","36.328786","-94.186447","<MISSING>"
"holidayinn.com","https://www.ihg.com/holidayinn/hotels/us/en/springdale/spdar/hoteldetail","Holiday Inn Springdale/Fayetteville Area","1500 South 48th Street","Springdale","Arkansas","72762","US","spdar","1-479-7518300","Hotel","36.1718","-94.1836","<MISSING>"
"holidayinn.com","https://www.ihg.com/holidayinn/hotels/us/en/texarkana/txkhi/hoteldetail","Holiday Inn Texarkana Arkansas Conv Ctr","5200 Convention Plaza Drive","Texarkana","Arkansas","71854","US","txkhi","1-870-2162000","Hotel","33.472367","-94.036719","<MISSING>"
"holidayinn.com","https://www.ihg.com/holidayinn/hotels/us/en/anaheim/laxaw/hoteldetail","Holiday Inn & Suites Anaheim (1 Blk/Disneyland®)","1240 South Walnut","Anaheim","California","92802","US","laxaw","1-714-5350300","Hotel","33.816612","-117.928299","<MISSING>"
"holidayinn.com","https://www.ihg.com/holidayinn/hotels/us/en/buena-park/laxbp/hoteldetail","Holiday Inn Buena Park-Near Knott's","7000 Beach Boulevard","Buena Park","California","90620","US","laxbp","1-714-5227000","Hotel","33.858989","-117.997995","<MISSING>"
"holidayinn.com","https://www.ihg.com/holidayinn/hotels/us/en/la-mirada/laxlm/hoteldetail","Holiday Inn La Mirada","14299 Firestone Blvd","La Mirada","California","90638","US","laxlm","1-714-7398500","Hotel","33.8846","-118.027099","<MISSING>"
"holidayinn.com","https://www.ihg.com/holidayinn/hotels/us/en/santa-ana/jwaca/hoteldetail","Holiday Inn Santa Ana-Orange Co. Arpt","2726 South Grand Avenue","Santa Ana","California","92705","US","jwaca","1-714-4816300","Hotel","33.709768","-117.85129","<MISSING>"
"holidayinn.com","https://www.ihg.com/holidayinn/hotels/us/en/diamond-bar/laxdb/hoteldetail","Holiday Inn Diamond Bar - Pomona","21725 E. Gateway Center Drive","Diamond Bar","California","91765","US","laxdb","1-909-8605440","Hotel","33.999853","-117.835262","<MISSING>"
"holidayinn.com","https://www.ihg.com/holidayinn/hotels/us/en/long-beach/laxlb/hoteldetail","Holiday Inn Long Beach Airport","2640 North Lakewood Boulevard","Long Beach","California","90815","US","laxlb","1-562-5974401","Hotel","33.803441","-118.142599","<MISSING>"
"holidayinn.com","https://www.ihg.com/holidayinn/hotels/us/en/west-covina/laxwc/hoteldetail","Holiday Inn West Covina","3223 East Garvey Avenue North","West Covina","California","91791","US","laxwc","1-626-9668311","Hotel","34.072156","-117.87563","<MISSING>"
"holidayinn.com","https://www.ihg.com/holidayinn/hotels/us/en/el-monte/burem/hoteldetail","Holiday Inn El Monte - Los Angeles","9920 Valley Blvd","El Monte","California","91731","US","burem","1-626-4341688","Hotel","34.0792576","-118.05506","<MISSING>"
"holidayinn.com","https://www.ihg.com/holidayinn/hotels/us/en/torrance/trrca/hoteldetail","Holiday Inn Los Angeles Gateway - Torrance","19800 S Vermont","Torrance","California","90502","US","trrca","1-310-7819100","Hotel","33.8516","-118.2905","<MISSING>"
"holidayinn.com","https://www.ihg.com/holidayinn/hotels/us/en/laguna-beach/laxlg/hoteldetail","Holiday Inn Laguna Beach","696 South Coast Highway","Laguna Beach","California","92651","US","laxlg","1-949-4941001","Hotel","33.537691","-117.77965","<MISSING>"
"holidayinn.com","https://www.ihg.com/holidayinn/hotels/us/en/ontario/ontha/hoteldetail","Holiday Inn Ontario Airport","2155 E. Convention Center Way","Ontario","California","91764","US","ontha","1-909-2128000","Hotel","34.0654","-117.605","<MISSING>"
"holidayinn.com","https://www.ihg.com/holidayinn/hotels/us/en/los-angeles/laxia/hoteldetail","Holiday Inn Los Angeles - LAX Airport","9901 S  La Cienega Boulevard","Los Angeles","California","90045","US","laxia","1-310-6495151","Hotel","33.946064","-118.370056","<MISSING>"
"holidayinn.com","https://www.ihg.com/holidayinn/hotels/us/en/auburn/aubca/hoteldetail","Holiday Inn Auburn","120 Grass Valley Highway","Auburn","California","95603","US","aubca","1-530-8878787 +400","Hotel","38.901561","-121.075444","<MISSING>"
"holidayinn.com","https://www.ihg.com/holidayinn/hotels/us/en/rancho-cordova/mhrrc/hoteldetail","Holiday Inn Sacramento Rancho Cordova","11269 Point East Drive","Rancho Cordova","California","95742","US","mhrrc","1-916-6354040","Hotel","38.607988","-121.267626","<MISSING>"
"holidayinn.com","https://www.ihg.com/holidayinn/hotels/us/en/bakersfield/bkrrh/hoteldetail","Holiday Inn & Suites Bakersfield","3927 Marriott Drive","Bakersfield","California","93308","US","bkrrh","1-661-3778000","Hotel","35.380474","-119.051074","<MISSING>"
"holidayinn.com","https://www.ihg.com/holidayinn/hotels/us/en/victorville/vcvca/hoteldetail","Holiday Inn Victorville","15494 Palmdale Rd","Victorville","California","92392","US","vcvca","1-760-2456565","Hotel","34.507118","-117.325551","<MISSING>"
"holidayinn.com","https://www.ihg.com/holidayinn/hotels/us/en/burbank/laxbb/hoteldetail","Holiday Inn Burbank-Media Center","150 East Angeleno","Burbank","California","91502","US","laxbb","1-818-8414770","Hotel","34.17951","-118.308307","<MISSING>"
"holidayinn.com","https://www.ihg.com/holidayinn/hotels/us/en/palmdale/pdlca/hoteldetail","Holiday Inn Palmdale-Lancaster","38630 5th Street West","Palmdale","California","93551","US","pdlca","1-661-9478055","Hotel","34.5836","-118.1386","<MISSING>"
"holidayinn.com","https://www.ihg.com/holidayinn/hotels/us/en/carlsbad/ocnhi/hoteldetail","Holiday Inn Carlsbad - San Diego","2725 Palomar Airport Road","Carlsbad","California","92009","US","ocnhi","1-760-4382725","Hotel","33.13004","-117.264137","<MISSING>"
"holidayinn.com","https://www.ihg.com/holidayinn/hotels/us/en/oceanside/ocnpc/hoteldetail","Holiday Inn Oceanside Camp Pendleton Area","1401 Carmelo Drive","Oceanside","California","92054","US","ocnpc","1-760-2317000","Hotel","33.20765","-117.38786","<MISSING>"
"holidayinn.com","https://www.ihg.com/holidayinn/hotels/us/en/san-diego/sanmm/hoteldetail","Holiday Inn San Diego Miramar - MCAS Area","9335 Kearny Mesa Road","San Diego","California","92126","US","sanmm","1-858-6952300","Hotel","32.8934","-117.1184","<MISSING>"
"holidayinn.com","https://www.ihg.com/holidayinn/hotels/us/en/san-diego/sanby/hoteldetail","Holiday Inn San Diego - Bayside","4875 North Harbor Drive","San Diego","California","92106","US","sanby","1-619-2243621","Hotel","32.725679","-117.222622","<MISSING>"
"holidayinn.com","https://www.ihg.com/holidayinn/hotels/us/en/dublin/dubrm/hoteldetail","Holiday Inn Dublin-Pleasanton","6680 Regional Street","Dublin","California","94568","US","dubrm","1-925-8287750","Hotel","37.701356","-121.932876","<MISSING>"
"holidayinn.com","https://www.ihg.com/holidayinn/hotels/us/en/oakland/sfohs/hoteldetail","Holiday Inn & Suites Oakland - Airport","77 Hegenberger Road","Oakland","California","94621","US","sfohs","1-510-6387777 +7511","Hotel","37.729056","-122.200648","<MISSING>"
"holidayinn.com","https://www.ihg.com/holidayinn/hotels/us/en/milpitas/sjcmi/hoteldetail","Holiday Inn & Suites Silicon Valley - Milpitas","1100 Cadillac Court","Milpitas","California","95035","US","sjcmi","1-408-2408000","Hotel","37.444721","-121.918743","<MISSING>"
"holidayinn.com","https://www.ihg.com/holidayinn/hotels/us/en/san-mateo/sfosm/hoteldetail","Holiday Inn & Suites San Mateo-San Francisco SFO","330 North Bayshore Boulevard","San Mateo","California","94401","US","sfosm","1-650-3443219","Hotel","37.578513","-122.321634","<MISSING>"
"holidayinn.com","https://www.ihg.com/holidayinn/hotels/us/en/san-jose/sjccc/hoteldetail","Holiday Inn San Jose - Silicon Valley","1350 North 1st Street","San Jose","California","95112","US","sjccc","1-408-4536200","Hotel","37.36087","-121.90884","<MISSING>"
"holidayinn.com","https://www.ihg.com/holidayinn/hotels/us/en/san-francisco/sfogg/hoteldetail","Holiday Inn San Francisco-Golden Gateway","1500 Van Ness Avenue","San Francisco","California","94109","US","sfogg","1-415-4414000","Hotel","37.789413","-122.422128","<MISSING>"
"holidayinn.com","https://www.ihg.com/holidayinn/hotels/us/en/la-mesa/sanpd/hoteldetail","Holiday Inn San Diego - La Mesa","8000 Parkway Drive","La Mesa","California","91942","US","sanpd","1-619-6987747","Hotel","32.774742","-117.025011","<MISSING>"
"holidayinn.com","https://www.ihg.com/holidayinn/hotels/us/en/sacramento/saccp/hoteldetail","Holiday Inn Sacramento Downtown - Arena","300 J Street","Sacramento","California","95814","US","saccp","1-916-4460100","Hotel","38.581882","-121.502722","<MISSING>"
"holidayinn.com","https://www.ihg.com/holidayinn/hotels/us/en/redding/rddca/hoteldetail","Holiday Inn Redding","1900 Hilltop Drive","Redding","California","96002","US","rddca","1-530-2217500","Hotel","40.57964","-122.357827","<MISSING>"
"holidayinn.com","https://www.ihg.com/holidayinn/hotels/us/en/santa-maria/smxca/hoteldetail","Holiday Inn & Suites Santa Maria","2100 North Broadway","Santa Maria","California","93454","US","smxca","1-805-9286000","Hotel","34.9788","-120.4344","<MISSING>"
"holidayinn.com","https://www.ihg.com/holidayinn/hotels/us/en/selma/semca/hoteldetail","Holiday Inn Selma-Swancourt","2950 Pea Soup Andersen Blvd","Selma","California","93662","US","semca","1-559-8918000","Hotel","36.57266","-119.62759","<MISSING>"
"holidayinn.com","https://www.ihg.com/holidayinn/hotels/us/en/windsor/stshi/hoteldetail","Holiday Inn Windsor - Wine Country","8755 Old Redwood Highway","Windsor","California","95492","US","stshi","1-707-8388800","Hotel","38.54606","-122.805944","<MISSING>"
"holidayinn.com","https://www.ihg.com/holidayinn/hotels/us/en/centennial/denns/hoteldetail","Holiday Inn & Suites Denver Tech Center-Centennial","6638  S Nome Street","Centennial","Colorado","80111","US","denns","1-303-7083000","Hotel","39.59657","-104.853286","<MISSING>"
"holidayinn.com","https://www.ihg.com/holidayinn/hotels/us/en/parker/denpr/hoteldetail","Holiday Inn Denver-Parker-E470/Parker Rd","19308 Cottonwood Drive","Parker","Colorado","80138","US","denpr","1-303-2482147","Hotel","39.552575","-104.771826","<MISSING>"
"holidayinn.com","https://www.ihg.com/holidayinn/hotels/us/en/denver/denst/hoteldetail","Holiday Inn Denver East","3333 Quebec Street","Denver","Colorado","80207","US","denst","1-303-3213500","Hotel","39.76396","-104.90345","<MISSING>"
"holidayinn.com","https://www.ihg.com/holidayinn/hotels/us/en/lakewood/denlw/hoteldetail","Holiday Inn Denver Lakewood","7390 West Hampden","Lakewood","Colorado","80227","US","denlw","1-303-9809200","Hotel","39.652602","-105.077651","<MISSING>"
"holidayinn.com","https://www.ihg.com/holidayinn/hotels/us/en/colorado-springs/cosfa/hoteldetail","Holiday Inn Colorado Springs Airport","1855 Aeroplaza Drive","Colorado Springs","Colorado","80916","US","cosfa","1-719-3808516","Hotel","38.806043","-104.737744","<MISSING>"
"holidayinn.com","https://www.ihg.com/holidayinn/hotels/us/en/durango/drodc/hoteldetail","Holiday Inn & Suites Durango Central","21636 Highway 160 West","Durango","Colorado","81301","US","drodc","1-970-3856400","Hotel","37.270658","-107.890587","<MISSING>"
"holidayinn.com","https://www.ihg.com/holidayinn/hotels/us/en/grand-junction/gjths/hoteldetail","Holiday Inn & Suites Grand Junction-Airport","2751 Crossroads Blvd","Grand Junction","Colorado","81506","US","gjths","1-970-6284346","Hotel","39.115346","-108.542644","<MISSING>"
"holidayinn.com","https://www.ihg.com/holidayinn/hotels/us/en/steamboat-springs/sbsco/hoteldetail","Holiday Inn Steamboat Springs","3190 South Lincoln Avenue","Steamboat Springs","Colorado","80487","US","sbsco","1-970-8792250","Hotel","40.4468","-106.8158","<MISSING>"
"holidayinn.com","https://www.ihg.com/holidayinn/hotels/us/en/bridgeport/bgdct/hoteldetail","Holiday Inn Bridgeport-Trumbull-Fairfield","1070 Main Street","Bridgeport","Connecticut","06604","US","bgdct","1-203-3341234","Hotel","41.179137","-73.18939","<MISSING>"
"holidayinn.com","https://www.ihg.com/holidayinn/hotels/us/en/danbury/dxnct/hoteldetail","Holiday Inn Danbury-Bethel @ I-84","80 Newtown Road","Danbury","Connecticut","06810","US","dxnct","1-203-7924000","Hotel","41.407705","-73.416444","<MISSING>"
"holidayinn.com","https://www.ihg.com/holidayinn/hotels/us/en/holtsville/ispcp/hoteldetail","Holiday Inn Long Island - ISLIP Arpt East","1730 North Ocean Avenue","Holtsville","New York","11742","US","ispcp","1-631-7582900","Hotel","40.821392","-73.020053","<MISSING>"
"holidayinn.com","https://www.ihg.com/holidayinn/hotels/us/en/mount-kisco/mtkny/hoteldetail","Holiday Inn Mt. Kisco (Westchester County)","One Holiday Inn Drive","Mount Kisco","New York","10549","US","mtkny","1-914-2412600","Hotel","41.21951","-73.723418","<MISSING>"
"holidayinn.com","https://www.ihg.com/holidayinn/hotels/us/en/plainview/nycpv/hoteldetail","Holiday Inn Plainview-Long Island","215 Sunnyside Boulevard","Plainview","New York","11803","US","nycpv","1-516-3497400","Hotel","40.797031","-73.467659","<MISSING>"
"holidayinn.com","https://www.ihg.com/holidayinn/hotels/us/en/cheshire/bdrch/hoteldetail","Holiday Inn Cheshire - Southington","64 Knotter Drive","Cheshire","Connecticut","06410","US","bdrch","1-860-2763100","Hotel","41.5618933","-72.9101976","<MISSING>"
"holidayinn.com","https://www.ihg.com/holidayinn/hotels/us/en/east-hartford/ehthi/hoteldetail","Holiday Inn Hartford Downtown Area","100 East River Drive","East Hartford","Connecticut","06108","US","ehthi","1-860-5289703","Hotel","41.767","-72.661","<MISSING>"
"holidayinn.com","https://www.ihg.com/holidayinn/hotels/us/en/poughkeepsie/pours/hoteldetail","Holiday Inn Poughkeepsie","2170 South Rd","Poughkeepsie","New York","12601","US","pours","1-845-4624600","Hotel","41.6390983","-73.91830039999999","<MISSING>"
"holidayinn.com","https://www.ihg.com/holidayinn/hotels/us/en/new-london/hfdnl/hoteldetail","Holiday Inn New London - Mystic Area","35 Governor Winthrop Boulevard","New London","Connecticut","06320","US","hfdnl","1-860-4437000","Hotel","41.356244","-72.09777","<MISSING>"
"holidayinn.com","https://www.ihg.com/holidayinn/hotels/us/en/norwich/nwhct/hoteldetail","Holiday Inn Norwich","10 Laura Boulevard","Norwich","Connecticut","06360","US","nwhct","1-860-8895201","Hotel","41.5087","-72.1196","<MISSING>"
"holidayinn.com","https://www.ihg.com/holidayinn/hotels/us/en/dover/dover/hoteldetail","Holiday Inn Dover-Downtown","561 North Dupont Highway","Dover","Delaware","19901","US","dover","1-302-7475050","Hotel","39.17612","-75.5242","<MISSING>"
"holidayinn.com","https://www.ihg.com/holidayinn/hotels/us/en/washington/wassm/hoteldetail","Holiday Inn Washington Capitol - Natl Mall","550 C Street S.W.","Washington","District of Columbia","20024","US","wassm","1-202-4794000","Hotel","38.886045","-77.019326","<MISSING>"
"holidayinn.com","https://www.ihg.com/holidayinn/hotels/us/en/washington/wasct/hoteldetail","Holiday Inn Washington-Central/White House","1501 Rhode Island Ave NW","Washington","District of Columbia","20005","US","wasct","1-202-4832000","Hotel","38.907924","-77.03477","<MISSING>"
"holidayinn.com","https://www.ihg.com/holidayinn/hotels/us/en/arlington/wasdc/hoteldetail","Holiday Inn National Airport/Crystal City","2650 Richmond Highway","Arlington","Virginia","22202","US","wasdc","1-703-6847200 +0","Hotel","38.850267","-77.052791","<MISSING>"
"holidayinn.com","https://www.ihg.com/holidayinn/hotels/us/en/arlington/wasfx/hoteldetail","Holiday Inn Arlington At Ballston","4610 N. Fairfax Dr","Arlington","Virginia","22203","US","wasfx","1-703-2439800","Hotel","38.882","-77.1165","<MISSING>"
"holidayinn.com","https://www.ihg.com/holidayinn/hotels/us/en/alexandria/axehd/hoteldetail","Holiday Inn & Suites Alexandria - Old Town","625 First Street","Alexandria","Virginia","22314","US","axehd","1-703-5486300","Hotel","38.815184","-77.044004","<MISSING>"
"holidayinn.com","https://www.ihg.com/holidayinn/hotels/us/en/alexandria/axetd/hoteldetail","Holiday Inn Alexandria - Carlyle","2460 Eisenhower Avenue","Alexandria","Virginia","22314","US","axetd","1-703-9602000","Hotel","38.801557","-77.073656","<MISSING>"
"holidayinn.com","https://www.ihg.com/holidayinn/hotels/us/en/college-park/wascb/hoteldetail","Holiday Inn Washington-College Pk (I-95)","10000 Baltimore Ave","College Park","Maryland","20740","US","wascb","1-301-3456700","Hotel","39.021","-76.9255","<MISSING>"
"holidayinn.com","https://www.ihg.com/holidayinn/hotels/us/en/greenbelt/wasgb/hoteldetail","Holiday Inn Washington D.C.-Greenbelt MD","7200 Hanover Dr","Greenbelt","Maryland","20770","US","wasgb","1-301-9827000","Hotel","38.989","-76.880199","<MISSING>"
"holidayinn.com","https://www.ihg.com/holidayinn/hotels/us/en/gaithersburg/wasrv/hoteldetail","Holiday Inn Gaithersburg","Two Montgomery Village Avenue","Gaithersburg","Maryland","20879","US","wasrv","1-301-9488900","Hotel","39.15304","-77.211539","<MISSING>"
"holidayinn.com","https://www.ihg.com/holidayinn/hotels/us/en/chantilly/ctyva/hoteldetail","Holiday Inn Chantilly-Dulles Expo (Arpt)","4335 Chantilly Shopping Center","Chantilly","Virginia","20151","US","ctyva","1-703-8156060","Hotel","38.886958","-77.443377","<MISSING>"
"holidayinn.com","https://www.ihg.com/holidayinn/hotels/us/en/dulles/wasda/hoteldetail","Holiday Inn Washington-Dulles Intl Airport","45425 Holiday Drive","Sterling","Virginia","20166","US","wasda","1-703-4717411","Hotel","38.984801","-77.429896","<MISSING>"
"holidayinn.com","https://www.ihg.com/holidayinn/hotels/us/en/jessup/balcj/hoteldetail","Holiday Inn Columbia East-Jessup","7900 Washington Blvd","Jessup","Maryland","20794","US","balcj","1-410-7997500","Hotel","39.1714","-76.7864","<MISSING>"
"holidayinn.com","https://www.ihg.com/holidayinn/hotels/us/en/manassas/mnzbf/hoteldetail","Holiday Inn Manassas - Battlefield","10424 Balls Ford Rd.","Manassas","Virginia","20109","US","mnzbf","1-571-2925400","Hotel","38.801186","-77.508536","<MISSING>"
"holidayinn.com","https://www.ihg.com/holidayinn/hotels/us/en/linthicum-heights/bwiap/hoteldetail","Holiday Inn Baltimore BWI Airport","815 Elkridge Landing Road","Linthicum Heights","Maryland","21090","US","bwiap","1-410-6911000","Hotel","39.194826","-76.685039","<MISSING>"
"holidayinn.com","https://www.ihg.com/holidayinn/hotels/us/en/boca-raton/bcthi/hoteldetail","Holiday Inn Boca Raton - North","701 NW 53rd Street","Boca Raton","Florida","33487","US","bcthi","1-561-9979500","Hotel","26.396313","-80.097802","<MISSING>"
"holidayinn.com","https://www.ihg.com/holidayinn/hotels/us/en/west-palm-beach/pbiat/hoteldetail","Holiday Inn Palm Beach-Airport Conf Ctr","1301 Belvedere Rd.","West Palm Beach","Florida","33405","US","pbiat","1-561-6593880","Hotel","26.69078","-80.069789","<MISSING>"
"holidayinn.com","https://www.ihg.com/holidayinn/hotels/us/en/hollywood/fllas/hoteldetail","Holiday Inn Ft. Lauderdale-Airport","2905 Sheridan Street","Hollywood","Florida","33020","US","fllas","1-954-9259100 +0","Hotel","26.033436","-80.165806","<MISSING>"
"holidayinn.com","https://www.ihg.com/holidayinn/hotels/us/en/melbourne/mlbqq/hoteldetail","Holiday Inn Melbourne-Viera Conference Ctr","8298 N Wickham Road","Melbourne","Florida","32940","US","mlbqq","1-321-2550077","Hotel","28.2304","-80.715799","<MISSING>"
"holidayinn.com","https://www.ihg.com/holidayinn/hotels/us/en/titusville/tixsr/hoteldetail","Holiday Inn Titusville - Kennedy Space Ctr","4715 Helen Hauser Blvd","Titusville","Florida","32780","US","tixsr","1-321-3830200","Hotel","28.552618","-80.853754","<MISSING>"
"holidayinn.com","https://www.ihg.com/holidayinn/hotels/us/en/clearwater-beach/clwgv/hoteldetail","Holiday Inn & Suites Clearwater Beach","521 S. Gulfview Boulevard","Clearwater Beach","Florida","33767","US","clwgv","1-727-4476461","Hotel","27.968492","-82.828384","<MISSING>"
"holidayinn.com","https://www.ihg.com/holidayinn/hotels/us/en/indian-rocks-beach/clwrb/hoteldetail","Holiday Inn & Suites Clearwater Beach S-Harbourside","401 Second Street","Indian Rocks Beach","Florida","33785","US","clwrb","1-727-5959484","Hotel","27.882619","-82.848999","<MISSING>"
"holidayinn.com","https://www.ihg.com/holidayinn/hotels/us/en/clearwater/clwap/hoteldetail","Holiday Inn St Petersburg N - Clearwater","3535 Ulmerton Road","Clearwater","Florida","33762","US","clwap","1-727-5779100","Hotel","27.89394","-82.681798","<MISSING>"
"holidayinn.com","https://www.ihg.com/holidayinn/hotels/us/en/st-petersburg/tpapb/hoteldetail","Holiday Inn St. Petersburg West","1200 34th Street North","St. Petersburg","Florida","33713","US","tpapb","1-727-3220770","Hotel","27.7836192","-82.6802154","<MISSING>"
"holidayinn.com","https://www.ihg.com/holidayinn/hotels/us/en/tampa/tpacp/hoteldetail","Holiday Inn Tampa Westshore - Airport Area","700 North Westshore Blvd","Tampa","Florida","33609","US","tpacp","1-813-2898200","Hotel","27.95102","-82.524139","<MISSING>"
"holidayinn.com","https://www.ihg.com/holidayinn/hotels/us/en/tampa/tpats/hoteldetail","Holiday Inn & Suites Tampa N - Busch Gardens Area","11310 North 30th Street","Tampa","Florida","33612","US","tpats","1-813-9717690","Hotel","28.051553","-82.426173","<MISSING>"
"holidayinn.com","https://www.ihg.com/holidayinn/hotels/us/en/kissimmee/mcoib/hoteldetail","Holiday Inn & Suites Orlando SW - Celebration Area","5711 W. Irlo Bronson Memorial Hwy","Kissimmee","Florida","34746","US","mcoib","1-407-3964222","Hotel","28.333147","-81.513211","<MISSING>"
"holidayinn.com","https://www.ihg.com/holidayinn/hotels/us/en/winter-haven/cypcg/hoteldetail","Holiday Inn Winter Haven","200 Cypress Gardens Boulevard","Winter Haven","Florida","33880","US","cypcg","1-863-2922100","Hotel","28.00396","-81.725719","<MISSING>"
"holidayinn.com","https://www.ihg.com/holidayinn/hotels/us/en/lake-buena-vista/dislb/hoteldetail","Holiday Inn Orlando-Disney Springs® Area","1805 Hotel Plaza Boulevard","Lake Buena Vista","Florida","32830","US","dislb","1-407-8288888","Hotel","28.374193","-81.511375","<MISSING>"
"holidayinn.com","https://www.ihg.com/holidayinn/hotels/us/en/orlando/mcorv/hoteldetail","Holiday Inn & Suites Orlando - International Dr S","12005 Regency Village Drive","Orlando","Florida","32821","US","mcorv","1-407-2394177","Hotel","28.390694","-81.48701","<MISSING>"
"holidayinn.com","https://www.ihg.com/holidayinn/hotels/us/en/orlando/mcous/hoteldetail","Holiday Inn & Suites Across From Universal Orlando","5916 Caravan Ct","Orlando","Florida","32819","US","mcous","1-407-3513333","Hotel","28.477151","-81.458681","<MISSING>"
"holidayinn.com","https://www.ihg.com/holidayinn/hotels/us/en/orlando/mcoap/hoteldetail","Holiday Inn Orlando-International Airport","5750 T.G. LEE BLVD","Orlando","Florida","32822","US","mcoap","1-407-8516400","Hotel","28.460276","-81.308538","<MISSING>"
"holidayinn.com","https://www.ihg.com/holidayinn/hotels/us/en/daytona-beach/dabfl/hoteldetail","Holiday Inn & Suites Daytona Beach on the Ocean","930 North Atlantic Avenue","Daytona Beach","Florida","32118","US","dabfl","1-386-2555494","Hotel","29.24107","-81.015122","<MISSING>"
"holidayinn.com","https://www.ihg.com/holidayinn/hotels/us/en/daytona-beach/dabhi/hoteldetail","Holiday Inn Daytona Beach LPGA BLVD","137 Automall Circle","Daytona Beach","Florida","32124","US","dabhi","1-386-9445988","Hotel","29.217019","-81.104863","<MISSING>"
"holidayinn.com","https://www.ihg.com/holidayinn/hotels/us/en/fort-myers/fmycl/hoteldetail","Holiday Inn Fort Myers - Downtown Area","2431 Cleveland Ave","Fort Myers","Florida","33901","US","fmycl","1-239-3323232","Hotel","26.63219","-81.872512","<MISSING>"
"holidayinn.com","https://www.ihg.com/holidayinn/hotels/us/en/fort-myers/fmyar/hoteldetail","Holiday Inn Ft. Myers Arpt-Town Center","9931 Interstate Commerce Drive","Fort Myers","Florida","33913","US","fmyar","1-239-5611550","Hotel","26.496363","-81.792449","<MISSING>"
"holidayinn.com","https://www.ihg.com/holidayinn/hotels/us/en/gainesville/gnvuc/hoteldetail","Holiday Inn Gainesville-University Ctr","1250 W. University Ave","Gainesville","Florida","32601","US","gnvuc","1-352-3761661","Hotel","29.652085","-82.338312","<MISSING>"
"holidayinn.com","https://www.ihg.com/holidayinn/hotels/us/en/hialeah-gardens/miahg/hoteldetail","Holiday Inn Miami West - Airport Area","7707 N.W. 103rd Street","Hialeah Gardens","Florida","33016","US","miahg","1-305-8251000","Hotel","25.86776","-80.3263","<MISSING>"
"holidayinn.com","https://www.ihg.com/holidayinn/hotels/us/en/miami/miawc/hoteldetail","Holiday Inn Miami-Doral Area","3255 NW 87th Ave","Miami","Florida","33172","US","miawc","1-305-5009000","Hotel","25.8044","-80.3365","<MISSING>"
"holidayinn.com","https://www.ihg.com/holidayinn/hotels/us/en/miami-springs/miaia/hoteldetail","Holiday Inn Miami-International Airport","1111 South Royal Poinciana Boulevard","Miami Springs","Florida","33166","US","miaia","1-305-8851941","Hotel","25.808803","-80.263766","<MISSING>"
"holidayinn.com","https://www.ihg.com/holidayinn/hotels/us/en/miami/miahs/hoteldetail","Holiday Inn Miami North – I-95","7927 N.W. 7th Avenue","Miami","Florida","33150","US","miahs","1-305-7518001","Hotel","25.848246","-80.209194","<MISSING>"
"holidayinn.com","https://www.ihg.com/holidayinn/hotels/us/en/miami/miabb/hoteldetail","Holiday Inn Port Of Miami-Downtown","340 Biscayne Boulevard","Miami","Florida","33132","US","miabb","1-305-3714400","Hotel","25.7783","-80.1882","<MISSING>"
"holidayinn.com","https://www.ihg.com/holidayinn/hotels/us/en/miami-beach/miamb/hoteldetail","Holiday Inn Miami Beach-Oceanfront","4333 Collins Avenue","Miami Beach","Florida","33140","US","miamb","1-305-5323311","Hotel","25.814966","-80.122721","<MISSING>"
"holidayinn.com","https://www.ihg.com/holidayinn/hotels/us/en/orange-park/jaxwr/hoteldetail","Holiday Inn & Suites Orange Park - Wells Rd.","620 Wells Rd.","Orange Park","Florida","32073","US","jaxwr","1-904-5627400","Hotel","30.187156","-81.706362","<MISSING>"
"holidayinn.com","https://www.ihg.com/holidayinn/hotels/us/en/jacksonville/jaxes/hoteldetail","Holiday Inn Jacksonville E 295 Baymeadows","11083 Nurseryfields Drive","Jacksonville","Florida","32256","US","jaxes","1-904-8548000","Hotel","30.221359","-81.510984","<MISSING>"
"holidayinn.com","https://www.ihg.com/holidayinn/hotels/us/en/saint-augustine/ustsa/hoteldetail","Holiday Inn St Augustine - World Golf","475 Commerce Lake Drive","Saint Augustine","Florida","32095","US","ustsa","1-904-9409500","Hotel","29.983797","-81.45786","<MISSING>"
"holidayinn.com","https://www.ihg.com/holidayinn/hotels/us/en/key-largo/kylfl/hoteldetail","Holiday Inn Key Largo","99701 Overseas Hwy","Key Largo","Florida","33037-0708","US","kylfl","1-305-4512121","Hotel","25.09596","-80.438879","<MISSING>"
"holidayinn.com","https://www.ihg.com/holidayinn/hotels/us/en/orlando/mcohs/hoteldetail","Holiday Inn Orlando East - UCF Area","1724 N. Alafaya Trail","Orlando","Florida","32826","US","mcohs","1-407-6589008","Hotel","28.567249","-81.207792","<MISSING>"
"holidayinn.com","https://www.ihg.com/holidayinn/hotels/us/en/lake-city/lkelc/hoteldetail","Holiday Inn & Suites Lake City","213 Sw Commerce Drive","Lake City","Florida","32025","US","lkelc","1-386-7541411","Hotel","30.175","-82.684","<MISSING>"
"holidayinn.com","https://www.ihg.com/holidayinn/hotels/us/en/ocala/ocflo/hoteldetail","Holiday Inn & Suites Ocala Conference Center","3600 SW 38th Avenue","Ocala","Florida","34474","US","ocflo","1-352-6299500","Hotel","29.1512","-82.187299","<MISSING>"
"holidayinn.com","https://www.ihg.com/holidayinn/hotels/us/en/st-augustine/sgjnp/hoteldetail","Holiday Inn St. Augustine - Historic","1302  North Ponce De Leon Blvd.","St. Augustine","Florida","32084","US","sgjnp","1-904-4942100","Hotel","29.904236","-81.320828","<MISSING>"
"holidayinn.com","https://www.ihg.com/holidayinn/hotels/us/en/panama-city/pfnml/hoteldetail","Holiday Inn Panama City","2001 Martin Luther King Boulevard","Panama City","Florida","32405","US","pfnml","1-850-7690000","Hotel","30.18428","-85.650049","<MISSING>"
"holidayinn.com","https://www.ihg.com/holidayinn/hotels/us/en/pensacola/pnsnd/hoteldetail","Holiday Inn Pensacola - University Area","7813 N. Davis Hwy","Pensacola","Florida","32514","US","pnsnd","1-850-4721400","Hotel","30.507044","-87.221575","<MISSING>"
"holidayinn.com","https://www.ihg.com/holidayinn/hotels/us/en/port-st-lucie/pslfl/hoteldetail","Holiday Inn Port St. Lucie","10120 S. Federal Highway","Port St. Lucie","Florida","34952","US","pslfl","1-772-3372200","Hotel","27.27956","-80.293159","<MISSING>"
"holidayinn.com","https://www.ihg.com/holidayinn/hotels/us/en/vero-beach/vrboc/hoteldetail","Holiday Inn & Suites Vero Beach-Oceanside","3384 Ocean Drive","Vero Beach","Florida","32963","US","vrboc","1-772-2312300","Hotel","27.65403","-80.356733","<MISSING>"
"holidayinn.com","https://www.ihg.com/holidayinn/hotels/us/en/sarasota/srqlb/hoteldetail","Holiday Inn Sarasota-Lido Beach-@The Beach","233 Benjamin Franklin","Sarasota","Florida","34236","US","srqlb","1-941-3885555","Hotel","27.31425","-82.579275","<MISSING>"
"holidayinn.com","https://www.ihg.com/holidayinn/hotels/us/en/sarasota/srqap/hoteldetail","Holiday Inn Sarasota-Airport","8009 15th St. East","Sarasota","Florida","34243","US","srqap","1-941-3559000","Hotel","27.398022","-82.546759","<MISSING>"
"holidayinn.com","https://www.ihg.com/holidayinn/hotels/us/en/tallahassee/tlhch/hoteldetail","Holiday Inn Tallahassee E Capitol - Univ","2003 Apalachee Parkway","Tallahassee","Florida","32301","US","tlhch","1-850-7928300","Hotel","30.430494","-84.246598","<MISSING>"
"holidayinn.com","https://www.ihg.com/holidayinn/hotels/us/en/tallahassee/tlhfs/hoteldetail","Holiday Inn & Suites Tallahassee Conference Ctr N","2725 Graves Road","Tallahassee","Florida","32303","US","tlhfs","1-850-5362000","Hotel","30.4837","-84.313279","<MISSING>"
"holidayinn.com","https://www.ihg.com/holidayinn/hotels/us/en/athens/ahnga/hoteldetail","Holiday Inn Athens-University Area","197 East Broad St, P.O. Box 1666","Athens","Georgia","30601","US","ahnga","1-706-5494433","Hotel","33.9569","-83.3783","<MISSING>"
"holidayinn.com","https://www.ihg.com/holidayinn/hotels/us/en/atlanta/atlap/hoteldetail","Holiday Inn & Suites Atlanta Airport-North","1380 Virginia Avenue","Atlanta","Georgia","30344","US","atlap","1-404-3059990","Hotel","33.65911","-84.43408","<MISSING>"
"holidayinn.com","https://www.ihg.com/holidayinn/hotels/us/en/atlanta/atlnl/hoteldetail","Holiday Inn Atlanta-Northlake","2158 Ranchwood Drive","Atlanta","Georgia","30345","US","atlnl","1-770-9346000","Hotel","33.847582","-84.251601","<MISSING>"
"holidayinn.com","https://www.ihg.com/holidayinn/hotels/us/en/chamblee/atlcm/hoteldetail","Holiday Inn & Suites Atlanta N - Chamblee Dunwoody","4401 Chamblee Dunwoody Road","Chamblee","Georgia","30341","US","atlcm","1-470-2424533","Hotel","33.9192624","-84.3148419","<MISSING>"
"holidayinn.com","https://www.ihg.com/holidayinn/hotels/us/en/stockbridge/sbrga/hoteldetail","Holiday Inn & Suites Stockbridge/Atlanta I-75","638 Hwy 138 W","Stockbridge","Georgia","30281","US","sbrga","1-678-7824000","Hotel","33.548473","-84.276541","<MISSING>"
"holidayinn.com","https://www.ihg.com/holidayinn/hotels/us/en/roswell/atlrs/hoteldetail","Holiday Inn Atlanta/Roswell","909 Holcomb Bridge Road","Roswell","Georgia","30076","US","atlrs","1-770-8171414","Hotel","34.027726","-84.334759","<MISSING>"
"holidayinn.com","https://www.ihg.com/holidayinn/hotels/us/en/duluth/atldu/hoteldetail","Holiday Inn Atlanta-Infinite Energy Center","6310 Sugarloaf Pkwy","Duluth","Georgia","30097","US","atldu","1-770-4762022","Hotel","33.9886","-84.0917","<MISSING>"
"holidayinn.com","https://www.ihg.com/holidayinn/hotels/us/en/peachtree-city/atlfc/hoteldetail","Holiday Inn & Suites Peachtree City","203 Newgate Road","Peachtree City","Georgia","30269","US","atlfc","1-770-4874646","Hotel","33.435316","-84.594311","<MISSING>"
"holidayinn.com","https://www.ihg.com/holidayinn/hotels/us/en/augusta/agsbr/hoteldetail","Holiday Inn Augusta West I-20","441 Park West","Augusta","Georgia","30813","US","agsbr","1-706-3964600","Hotel","33.4805","-82.1314","<MISSING>"
"holidayinn.com","https://www.ihg.com/holidayinn/hotels/us/en/brunswick/ssibr/hoteldetail","Holiday Inn Brunswick I-95 (Exit 38)","138 Glynco Pkwy","Brunswick","Georgia","31525","US","ssibr","1-912-2643300","Hotel","31.2373","-81.5008","<MISSING>"
"holidayinn.com","https://www.ihg.com/holidayinn/hotels/us/en/macon/mcnhs/hoteldetail","Holiday Inn Macon North","3953 River Place Drive","Macon","Georgia","31210","US","mcnhs","1-478-8038200","Hotel","32.9041","-83.683226","<MISSING>"
"holidayinn.com","https://www.ihg.com/holidayinn/hotels/us/en/savannah/savsg/hoteldetail","Holiday Inn & Suites Savannah Airport - Pooler","100 Outlet Parkway","Pooler","Georgia","31322","US","savsg","1-912-4509800","Hotel","32.1373548","-81.2462235","<MISSING>"
"holidayinn.com","https://www.ihg.com/holidayinn/hotels/us/en/savannah/savgb/hoteldetail","Holiday Inn Savannah S - I-95 Gateway","11 Gateway Boulevard East","Savannah","Georgia","31419","US","savgb","1-912-9252525","Hotel","32.006415","-81.27881","<MISSING>"
"holidayinn.com","https://www.ihg.com/holidayinn/hotels/us/en/savannah/savmk/hoteldetail","Holiday Inn Savannah Historic District","520 West Bryan Street","Savannah","Georgia","31401","US","savmk","1-912-7901000","Hotel","32.08175","-81.09721","<MISSING>"
"holidayinn.com","https://www.ihg.com/holidayinn/hotels/us/en/statesboro/tbrhi/hoteldetail","Holiday Inn Statesboro-University Area","455 Commerce Drive","Statesboro","Georgia","30458","US","tbrhi","1-912-4894545","Hotel","32.42965","-81.75635","<MISSING>"
"holidayinn.com","https://www.ihg.com/holidayinn/hotels/us/en/valdosta/vldsa/hoteldetail","Holiday Inn Valdosta Conference Center","1805 West Hill Avenue","Valdosta","Georgia","31601","US","vldsa","1-229-2441111","Hotel","30.821741","-83.30947","<MISSING>"
"holidayinn.com","https://www.ihg.com/holidayinn/hotels/us/en/boise/boihi/hoteldetail","Holiday Inn Boise Airport","2970 West Elder Street","Boise","Idaho","83705","US","boihi","1-208-3447444","Hotel","43.573483","-116.217749","<MISSING>"
"holidayinn.com","https://www.ihg.com/holidayinn/hotels/us/en/nampa/boimb/hoteldetail","Holiday Inn Nampa","16245 N Merchant Way","Nampa","Idaho","83687","US","boimb","1-208-4680944","Hotel","43.609377","-116.59369","<MISSING>"
"holidayinn.com","https://www.ihg.com/holidayinn/hotels/us/en/idaho-falls/idafi/hoteldetail","Holiday Inn & Suites Idaho Falls","3005 South Fork Boulevard","Idaho Falls","Idaho","83402","US","idafi","1-208-2279800","Hotel","43.470992","-112.078437","<MISSING>"
"holidayinn.com","https://www.ihg.com/holidayinn/hotels/us/en/twin-falls/twfbl/hoteldetail","Holiday Inn Twin Falls","1586 Blue Lakes Blvd N","Twin Falls","Idaho","83301","US","twfbl","1-208-7337545","Hotel","42.589552","-114.4581433","<MISSING>"
"holidayinn.com","https://www.ihg.com/holidayinn/hotels/us/en/aurora/chiau/hoteldetail","Holiday Inn Aurora North- Naperville","2424 West Sullivan Road","Aurora","Illinois","60506","US","chiau","1-630-8067400","Hotel","41.787953","-88.377628","<MISSING>"
"holidayinn.com","https://www.ihg.com/holidayinn/hotels/us/en/bolingbrook/chibb/hoteldetail","Holiday Inn & Suites Bolingbrook","205 Remington Blvd.","Bolingbrook","Illinois","60440","US","chibb","1-630-6791600","Hotel","41.68476","-88.072765","<MISSING>"
"holidayinn.com","https://www.ihg.com/holidayinn/hotels/us/en/carol-stream/csril/hoteldetail","Holiday Inn & Suites Chicago-Carol Stream (Wheaton)","150 South Gary Avenue","Carol Stream","Illinois","60188","US","csril","1-630-6653000","Hotel","41.903153","-88.120595","<MISSING>"
"holidayinn.com","https://www.ihg.com/holidayinn/hotels/us/en/oakbrook-terrace/chiws/hoteldetail","Holiday Inn Chicago Oakbrook","17 W. 350 22nd Street","Oakbrook Terrace","Illinois","60181","US","chiws","1-630-8333600","Hotel","41.8467","-87.9686","<MISSING>"
"holidayinn.com","https://www.ihg.com/holidayinn/hotels/us/en/joliet/jotrc/hoteldetail","Holiday Inn & Suites Joliet Southwest","1471 Rock Creek Boulevard","Joliet","Illinois","60431","US","jotrc","1-779-2062915","Hotel","41.4950508","-88.17044709999999","<MISSING>"
"holidayinn.com","https://www.ihg.com/holidayinn/hotels/us/en/elgin/chiel/hoteldetail","Holiday Inn & Suites Chicago Northwest - Elgin","495 Airport Road","Elgin","Illinois","60123","US","chiel","1-847-4889000","Hotel","42.072752","-88.288452","<MISSING>"
"holidayinn.com","https://www.ihg.com/holidayinn/hotels/us/en/countryside/chilg/hoteldetail","Holiday Inn Chicago SW-Countryside ConfCtr","6201 Joliet Road","Countryside","Illinois","60525","US","chilg","1-708-3544200","Hotel","41.776955","-87.871734","<MISSING>"
"holidayinn.com","https://www.ihg.com/holidayinn/hotels/us/en/Schaumburg/jmhrr/hoteldetail","Holiday Inn Chicago - Schaumburg","1998 N. Roselle Road","Schaumburg","Illinois","60195","US","jmhrr","1-847-8850101","Hotel","42.0630044","-88.08103040000002","<MISSING>"
"holidayinn.com","https://www.ihg.com/holidayinn/hotels/us/en/elk-grove-village/chieg/hoteldetail","Holiday Inn Chicago-Elk Grove","1000 Busse Road","Elk Grove Village","Illinois","60007","US","chieg","1-847-4376010","Hotel","42.011439","-87.959675","<MISSING>"
"holidayinn.com","https://www.ihg.com/holidayinn/hotels/us/en/chicago/ordbm/hoteldetail","Holiday Inn Chicago O'Hare Area","5615 N. Cumberland Avenue","Chicago","Illinois","60631","US","ordbm","1-773-6935800","Hotel","41.981478","-87.836499","<MISSING>"
"holidayinn.com","https://www.ihg.com/holidayinn/hotels/us/en/bloomington/bmitc/hoteldetail","Holiday Inn Bloomington - Normal","8 Traders Circle","Normal","<MISSING>","61761","US","bmitc","1-309-8620101","Hotel","40.5361129","-88.9969419","<MISSING>"
"holidayinn.com","https://www.ihg.com/holidayinn/hotels/us/en/bloomington/bmiil/hoteldetail","Holiday Inn & Suites Bloomington-Airport","3202 East Empire Street","Bloomington","Illinois","61704","US","bmiil","1-309-6624700","Hotel","40.488259","-88.919162","<MISSING>"
"holidayinn.com","https://www.ihg.com/holidayinn/hotels/us/en/matteson/matil/hoteldetail","Holiday Inn Chicago Matteson Conf Ctr","500 Holiday Plaza Drive","Matteson","Illinois","60443","US","matil","1-708-7473500","Hotel","41.50395","-87.740759","<MISSING>"
"holidayinn.com","https://www.ihg.com/holidayinn/hotels/us/en/chicago/chiwh/hoteldetail","Holiday Inn & Suites Chicago-Downtown","506 West Harrison Street","Chicago","Illinois","60607","US","chiwh","1-312-9579100","Hotel","41.874404","-87.639972","<MISSING>"
"holidayinn.com","https://www.ihg.com/holidayinn/hotels/us/en/chicago/chipl/hoteldetail","Holiday Inn Chicago-Mart Plaza River North","350 W Wolf Point Plaza","Chicago","Illinois","60654","US","chipl","1-312-8365000","Hotel","41.88829","-87.63782","<MISSING>"
"holidayinn.com","https://www.ihg.com/holidayinn/hotels/us/en/skokie/chisk/hoteldetail","Holiday Inn & Suites Chicago North Shore (Skokie)","5300 West Touhy Ave","Skokie","Illinois","60077","US","chisk","1-847-6798900","Hotel","42.0118","-87.7602","<MISSING>"
"holidayinn.com","https://www.ihg.com/holidayinn/hotels/us/en/carbondale/mdhci/hoteldetail","Holiday Inn Carbondale-Conference Center","2300 Reed Station Parkway","Carbondale","Illinois","62901","US","mdhci","1-618-5492600","Hotel","37.744","-89.16315","<MISSING>"
"holidayinn.com","https://www.ihg.com/holidayinn/hotels/us/en/crystal-lake/chicl/hoteldetail","Holiday Inn Chicago Nw Crystal Lk Conv Ctr","800 South Route 31","Crystal Lake","Illinois","60014","US","chicl","1-815-4777000","Hotel","42.220329","-88.2853372","<MISSING>"
"holidayinn.com","https://www.ihg.com/holidayinn/hotels/us/en/evanston/chine/hoteldetail","Holiday Inn Chicago North-Evanston","1501 Sherman Avenue","Evanston","Illinois","60201","US","chine","1-847-4916400","Hotel","42.044633","-87.681923","<MISSING>"
"holidayinn.com","https://www.ihg.com/holidayinn/hotels/us/en/champaign/cmitc/hoteldetail","Holiday Inn Champaign","101 Trade Center Drive","Champaign","Illinois","61820","US","cmitc","1-217-3983400","Hotel","40.0967452","-88.24561","<MISSING>"
"holidayinn.com","https://www.ihg.com/holidayinn/hotels/us/en/gurnee/chiwg/hoteldetail","Holiday Inn Chicago North - Gurnee","6161 West Grand Avenue","Gurnee","Illinois","60031","US","chiwg","1-847-3366300","Hotel","42.383373","-87.95534","<MISSING>"
"holidayinn.com","https://www.ihg.com/holidayinn/hotels/us/en/decatur/decno/hoteldetail","Holiday Inn & Suites Decatur-Forsyth","5150 North Wingate Drive","Decatur","Illinois","62526","US","decno","1-217-5425400","Hotel","39.911766","-88.951417","<MISSING>"
"holidayinn.com","https://www.ihg.com/holidayinn/hotels/us/en/east-peoria/piaws/hoteldetail","Holiday Inn & Suites East Peoria","101 Holiday Street","East Peoria","Illinois","61611","US","piaws","1-309-6983333","Hotel","40.673421","-89.588292","<MISSING>"
"holidayinn.com","https://www.ihg.com/holidayinn/hotels/us/en/peoria/piahi/hoteldetail","Holiday Inn & Suites Peoria At Grand Prairie","7601 North Orange Prairie Road","Peoria","Illinois","61615","US","piahi","1-309-6833399 +0","Hotel","40.780758","-89.679169","<MISSING>"
"holidayinn.com","https://www.ihg.com/holidayinn/hotels/us/en/effingham/mtoef/hoteldetail","Holiday Inn Effingham","1301 Avenue of Mid America","Effingham","Illinois","62401","US","mtoef","1-217-5407777","Hotel","39.138963","-88.562935","<MISSING>"
"holidayinn.com","https://www.ihg.com/holidayinn/hotels/us/en/fairview-heights/fvhil/hoteldetail","Holiday Inn St. Louis-Fairview Heights","313 Salem Place","Fairview Heights","Illinois","62208","US","fvhil","1-618-2121300","Hotel","38.60119","-89.982646","<MISSING>"
"holidayinn.com","https://www.ihg.com/holidayinn/hotels/us/en/st-louis/stlcc/hoteldetail","Holiday Inn St. Louis - Downtown Conv Ctr","811 North Ninth Street","St. Louis","Missouri","63101","US","stlcc","1-314-4214000","Hotel","38.632867","-90.192039","<MISSING>"
"holidayinn.com","https://www.ihg.com/holidayinn/hotels/us/en/st-louis/stlfp/hoteldetail","Holiday Inn St. Louis - Forest Park","5915 Wilson Avenue","St. Louis","Missouri","63110","US","stlfp","1-314-6450700","Hotel","38.618011","-90.286088","<MISSING>"
"holidayinn.com","https://www.ihg.com/holidayinn/hotels/us/en/st-louis/stlsw/hoteldetail","Holiday Inn St Louis SW - Route 66","10709 Watson Road","St. Louis","Missouri","63127","US","stlsw","1-314-8216600","Hotel","38.555386","-90.408736","<MISSING>"
"holidayinn.com","https://www.ihg.com/holidayinn/hotels/us/en/st-louis/stlcr/hoteldetail","Holiday Inn St. Louis - Creve Coeur","1030 Woodcrest Terrace Drive","St. Louis","Missouri","63141","US","stlcr","1-314-5947000","Hotel","38.6770646","-90.4507659","<MISSING>"
"holidayinn.com","https://www.ihg.com/holidayinn/hotels/us/en/st-louis/stlhi/hoteldetail","Holiday Inn St. Louis Arpt West-Earth City","3400 Rider Trail South","St. Louis","Missouri","63045","US","stlhi","1-314-2916800","Hotel","38.761969","-90.458589","<MISSING>"
"holidayinn.com","https://www.ihg.com/holidayinn/hotels/us/en/quincy/uinos/hoteldetail","Holiday Inn Quincy","4821 Oak Street","Quincy","Illinois","62305","US","uinos","1-217-2237800","Hotel","39.937579","-91.339158","<MISSING>"
"holidayinn.com","https://www.ihg.com/holidayinn/hotels/us/en/rock-island/rkiil/hoteldetail","Holiday Inn Rock Island - Quad Cities","226 17th Street, Suite 100","Rock Island","Illinois","61201","US","rkiil","1-309-7941212","Hotel","41.510729","-90.576016","<MISSING>"
"holidayinn.com","https://www.ihg.com/holidayinn/hotels/us/en/davenport/dvnhi/hoteldetail","Holiday Inn & Suites Davenport","4215 Elmore Ave","Davenport","Iowa","52807","US","dvnhi","1-563-3442900","Hotel","41.563727","-90.525953","<MISSING>"
"holidayinn.com","https://www.ihg.com/holidayinn/hotels/us/en/rockford/rfdil/hoteldetail","Holiday Inn Rockford(I-90&Rt 20/State St)","7550 East State Street","Rockford","Illinois","61108","US","rfdil","1-815-3982200","Hotel","42.270424","-88.96945","<MISSING>"
"holidayinn.com","https://www.ihg.com/holidayinn/hotels/us/en/bloomington/bmgkp/hoteldetail","Holiday Inn Bloomington-University Area","1710 N. Kinser Pike","Bloomington","Indiana","47404","US","bmgkp","1-812-3343252","Hotel","39.185203","-86.537737","<MISSING>"
"holidayinn.com","https://www.ihg.com/holidayinn/hotels/us/en/indianapolis/indml/hoteldetail","Holiday Inn Indianapolis Carmel","251 Pennsylvania Parkway","Carmel","Indiana","46280","US","indml","1-317-5744600","Hotel","39.931","-86.152","<MISSING>"
"holidayinn.com","https://www.ihg.com/holidayinn/hotels/us/en/indianapolis/indwe/hoteldetail","Holiday Inn Indianapolis Downtown","515 S West Street","Indianapolis","Indiana","46225","US","indwe","1-317-6319000","Hotel","39.760105","-86.167375","<MISSING>"
"holidayinn.com","https://www.ihg.com/holidayinn/hotels/us/en/indianapolis/indfc/hoteldetail","Holiday Inn Indianapolis - Airport Area N","5601 Fortune Circle West","Indianapolis","Indiana","46241","US","indfc","1-317-3480033","Hotel","39.7276214","-86.25817889999999","<MISSING>"
"holidayinn.com","https://www.ihg.com/holidayinn/hotels/us/en/indianapolis/indax/hoteldetail","Holiday Inn Indianapolis Airport","8555 Stansted Drive","Indianapolis","Indiana","46241","US","indax","1-317-8566200","Hotel","39.6750761","-86.3102379","<MISSING>"
"holidayinn.com","https://www.ihg.com/holidayinn/hotels/us/en/columbus/clujm/hoteldetail","Holiday Inn Columbus","2485 W. Jonathan Moore Pike","Columbus","Indiana","47201","US","clujm","1-812-4177200","Hotel","39.1993908","-85.9536859","<MISSING>"
"holidayinn.com","https://www.ihg.com/holidayinn/hotels/us/en/fort-wayne/fwayn/hoteldetail","Holiday Inn Purdue - Fort Wayne","4111 Paul Shaffer Drive","Fort Wayne","Indiana","46825","US","fwayn","1-260-4823800","Hotel","41.116284","-85.120654","<MISSING>"
"holidayinn.com","https://www.ihg.com/holidayinn/hotels/us/en/lafayette/lafin/hoteldetail","Holiday Inn Lafayette-City Centre","515 South Street","Lafayette","Indiana","47901","US","lafin","1-765-4231000","Hotel","40.417333","-86.891637","<MISSING>"
"holidayinn.com","https://www.ihg.com/holidayinn/hotels/us/en/mishawaka/sbnmi/hoteldetail","Holiday Inn Mishawaka - Conference Center","1208 E Douglas Road","Mishawaka","Indiana","46545","US","sbnmi","1-574-2584408","Hotel","41.710679","-86.166926","<MISSING>"
"holidayinn.com","https://www.ihg.com/holidayinn/hotels/us/en/richmond/ridrh/hoteldetail","Holiday Inn Richmond","6000 National Road East","Richmond","Indiana","47374","US","ridrh","1-765-4881975","Hotel","39.835145","-84.82084","<MISSING>"
"holidayinn.com","https://www.ihg.com/holidayinn/hotels/us/en/terre-haute/hufin/hoteldetail","Holiday Inn Terre Haute","3300 U.S. Highway 41 South","Terre Haute","Indiana","47802","US","hufin","1-812-2326081","Hotel","39.428696","-87.414746","<MISSING>"
"holidayinn.com","https://www.ihg.com/holidayinn/hotels/us/en/cedar-falls/alocf/hoteldetail","Holiday Inn & Suites Cedar Falls-Waterloo Event Ctr","7400 Hudson Road","Cedar Falls","Iowa","50613","US","alocf","1-319-2602600","Hotel","42.47131340000001","-92.4663564","<MISSING>"
"holidayinn.com","https://www.ihg.com/holidayinn/hotels/us/en/council-bluffs/cbfrb/hoteldetail","Holiday Inn & Suites Council Bluffs-I-29","2202 River Road","Council Bluffs","Iowa","51501","US","cbfrb","1-712-3225050","Hotel","41.240343","-95.906743","<MISSING>"
"holidayinn.com","https://www.ihg.com/holidayinn/hotels/us/en/omaha/omafc/hoteldetail","Holiday Inn Omaha Downtown - Waterpark","1420 Cuming Street","Omaha","Nebraska","68102","US","omafc","1-402-3410124","Hotel","41.268019","-95.93478","<MISSING>"
"holidayinn.com","https://www.ihg.com/holidayinn/hotels/us/en/des-moines/dsmdw/hoteldetail","Holiday Inn Des Moines DTWN - Mercy Area","1050 6th Avenue","Des Moines","Iowa","50314","US","dsmdw","1-515-2830151","Hotel","41.596831","-93.625683","<MISSING>"
"holidayinn.com","https://www.ihg.com/holidayinn/hotels/us/en/des-moines/dsmap/hoteldetail","Holiday Inn Des Moines-Airport/Conf Center","6111 Fleur Drive","Des Moines","Iowa","50321","US","dsmap","1-515-2872400","Hotel","41.529121","-93.644933","<MISSING>"
"holidayinn.com","https://www.ihg.com/holidayinn/hotels/us/en/urbandale/dsmdu/hoteldetail","Holiday Inn & Suites Des Moines-Northwest","4800 Merle Hay Road","Urbandale","Iowa","50322","US","dsmdu","1-515-2784755","Hotel","41.64968","-93.698049","<MISSING>"
"holidayinn.com","https://www.ihg.com/holidayinn/hotels/us/en/dubuque/dbqia/hoteldetail","Holiday Inn Dubuque/Galena","450 Main Street","Dubuque","Iowa","52001","US","dbqia","1-563-5562000","Hotel","42.497991","-90.665616","<MISSING>"
"holidayinn.com","https://www.ihg.com/holidayinn/hotels/us/en/sioux-city/suxrb/hoteldetail","Holiday Inn Sioux City","701 Gordon Drive","Sioux City","Iowa","51101","US","suxrb","1-712-2779400","Hotel","42.48982","-96.401539","<MISSING>"
"holidayinn.com","https://www.ihg.com/holidayinn/hotels/us/en/manhattan/manhi/hoteldetail","Holiday Inn Manhattan At The Campus","1641 Anderson Avenue","Manhattan","Kansas","66502","US","manhi","1-785-5397531","Hotel","39.1859","-96.581999","<MISSING>"
"holidayinn.com","https://www.ihg.com/holidayinn/hotels/us/en/overland-park/mkcpk/hoteldetail","Holiday Inn & Suites Overland Park-West","8787 Reeder Street","Overland Park","Kansas","66214","US","mkcpk","1-913-8888440","Hotel","38.968475","-94.713135","<MISSING>"
"holidayinn.com","https://www.ihg.com/holidayinn/hotels/us/en/overland-park/mkcov/hoteldetail","Holiday Inn & Suites Overland Park-Conv Ctr","10920 Nall Avenue","Overland Park","Kansas","66211","US","mkcov","1-913-3120900","Hotel","38.929961","-94.648953","<MISSING>"
"holidayinn.com","https://www.ihg.com/holidayinn/hotels/us/en/kansas-city/mkcad/hoteldetail","Holiday Inn Kansas City - Downtown","770 Admiral Boulevard","Kansas City","Missouri","64106","US","mkcad","1-816-4728808","Hotel","39.1057803","-94.57441229999999","<MISSING>"
"holidayinn.com","https://www.ihg.com/holidayinn/hotels/us/en/kansas-city/mkcpv/hoteldetail","Holiday Inn Kansas City - Northeast","4101 N. Corrington Ave","Kansas City","Missouri","64117","US","mkcpv","1-816-7020300","Hotel","39.164491","-94.49691299999999","<MISSING>"
"holidayinn.com","https://www.ihg.com/holidayinn/hotels/us/en/kansas-city/mkccr/hoteldetail","Holiday Inn Kansas City Airport","11728 N. Ambassador Drive","Kansas City","Missouri","64153","US","mkccr","1-816-8018400","Hotel","39.305705","-94.682119","<MISSING>"
"holidayinn.com","https://www.ihg.com/holidayinn/hotels/us/en/salina/slnaa/hoteldetail","Holiday Inn Salina","3145 South 9th Street","Salina","Kansas","67401","US","slnaa","1-785-4046767","Hotel","38.780359","-97.612649","<MISSING>"
"holidayinn.com","https://www.ihg.com/holidayinn/hotels/us/en/wichita/ictks/hoteldetail","Holiday Inn Wichita East I-35","549 South Rock Road","Wichita","Kansas","67207","US","ictks","1-316-6867131","Hotel","37.67816","-97.244459","<MISSING>"
"holidayinn.com","https://www.ihg.com/holidayinn/hotels/us/en/bowling-green/bwgwt/hoteldetail","Holiday Inn University Plaza-Bowling Green","1021 Wilkinson Trace","Bowling Green","Kentucky","42103","US","bwgwt","1-270-7450088","Hotel","36.969","-86.4282","<MISSING>"
"holidayinn.com","https://www.ihg.com/holidayinn/hotels/us/en/covington/cvgrf/hoteldetail","Holiday Inn Cincinnati-Riverfront","600 W Third Street","Covington","Kentucky","41011","US","cvgrf","1-859-2914300","Hotel","39.0876","-84.5201","<MISSING>"
"holidayinn.com","https://www.ihg.com/holidayinn/hotels/us/en/cincinnati/cvghs/hoteldetail","Holiday Inn & Suites Cincinnati Downtown","701 Broadway Street","Cincinnati","Ohio","45202","US","cvghs","1-513-3815025","Hotel","39.104712","-84.507069","<MISSING>"
"holidayinn.com","https://www.ihg.com/holidayinn/hotels/us/en/erlanger/cvgap/hoteldetail","Holiday Inn Cincinnati Airport","1717 Airport Exchange Blvd.","Erlanger","Kentucky","41018","US","cvgap","1-859-3712233","Hotel","39.057647","-84.626615","<MISSING>"
"holidayinn.com","https://www.ihg.com/holidayinn/hotels/us/en/florence/cvgky/hoteldetail","Holiday Inn Florence","7905 Freedom Way","Florence","Kentucky","41042","US","cvgky","1-859-9801700","Hotel","38.985518","-84.637443","<MISSING>"
"holidayinn.com","https://www.ihg.com/holidayinn/hotels/us/en/cincinnati/cvgem/hoteldetail","Holiday Inn & Suites Cincinnati-Eastgate (I-275e)","4501 Eastgate Blvd.","Cincinnati","Ohio","45245","US","cvgem","1-513-7524400","Hotel","39.0989","-84.2744","<MISSING>"
"holidayinn.com","https://www.ihg.com/holidayinn/hotels/us/en/west-chester/cvgar/hoteldetail","Holiday Inn Cincinnati N - West Chester","5800 Muhlhauser Road","West Chester","Ohio","45069","US","cvgar","1-513-8742744","Hotel","39.317798","-84.434595","<MISSING>"
"holidayinn.com","https://www.ihg.com/holidayinn/hotels/us/en/Hopkinsville/hopkn/hoteldetail","Holiday Inn & Suites Hopkinsville - Convention Ctr","100 Tilley Way","Hopkinsville","Kentucky","42240","US","hopkn","1-270-8878600","Hotel","36.806567","-87.48142","<MISSING>"
"holidayinn.com","https://www.ihg.com/holidayinn/hotels/us/en/lexington/lexmw/hoteldetail","Holiday Inn Lexington - Hamburg","1976 Justice Dr","Lexington","Kentucky","40509","US","lexmw","1-859-6877008","Hotel","38.0176329","-84.411812","<MISSING>"
"holidayinn.com","https://www.ihg.com/holidayinn/hotels/us/en/louisville/sdfcd/hoteldetail","Holiday Inn Louisville Airport - Fair/Expo","447 Farmington Ave.","Louisville","Kentucky","40209","US","sdfcd","1-502-6374500","Hotel","38.201197","-85.751547","<MISSING>"
"holidayinn.com","https://www.ihg.com/holidayinn/hotels/us/en/louisville/sdfoo/hoteldetail","Holiday Inn Louisville Airport South","6551 Paramount Park Drive","Louisville","Kentucky","40213","US","sdfoo","1-502-9660000","Hotel","38.154656","-85.712638","<MISSING>"
"holidayinn.com","https://www.ihg.com/holidayinn/hotels/us/en/louisville/sdfea/hoteldetail","Holiday Inn Louisville East - Hurstbourne","1325 South Hurstbourne Parkway","Louisville","Kentucky","40222","US","sdfea","1-502-4262600","Hotel","38.225885","-85.577553","<MISSING>"
"holidayinn.com","https://www.ihg.com/holidayinn/hotels/us/en/louisville/sdfmh/hoteldetail","Holiday Inn Louisville Downtown","101 W. Muhammad Ali Blvd","Louisville","Kentucky","40202","US","sdfmh","<MISSING>","Hotel","38.2508433","-85.7528952","<MISSING>"
"holidayinn.com","https://www.ihg.com/holidayinn/hotels/us/en/owensboro/owbdt/hoteldetail","Holiday Inn Owensboro Riverfront","701 West 1st Street","Owensboro","Kentucky","42301","US","owbdt","1-270-6831111","Hotel","37.775583","-87.118291","<MISSING>"
"holidayinn.com","https://www.ihg.com/holidayinn/hotels/us/en/paducah/pahrf/hoteldetail","Holiday Inn Paducah Riverfront","600 North Fourth Street","Paducah","Kentucky","42001","US","pahrf","1-270-3667614","Hotel","37.092172","-88.601486","<MISSING>"
"holidayinn.com","https://www.ihg.com/holidayinn/hotels/us/en/alexandria/alxdt/hoteldetail","Holiday Inn Alexandria - Downtown","701 4th St","Alexandria","Louisiana","71301","US","alxdt","1-318-5418333","Hotel","31.312341","-92.447164","<MISSING>"
"holidayinn.com","https://www.ihg.com/holidayinn/hotels/us/en/baton-rouge/btrco/hoteldetail","Holiday Inn Baton Rouge College Drive I-10","4848 Constitution Ave","Baton Rouge","Louisiana","70808","US","btrco","1-225-4482030","Hotel","30.421998","-91.134441","<MISSING>"
"holidayinn.com","https://www.ihg.com/holidayinn/hotels/us/en/baton-rouge/btrso/hoteldetail","Holiday Inn Baton Rouge-South","9990 Airline Hwy","Baton Rouge","Louisiana","70816","US","btrso","1-225-9247021","Hotel","30.4284","-91.0785","<MISSING>"
"holidayinn.com","https://www.ihg.com/holidayinn/hotels/us/en/covington/msyvd/hoteldetail","Holiday Inn Covington","45 Louis Prima Drive","Covington","Louisiana","70433","US","msyvd","1-985-8881200","Hotel","30.438986","-90.080843","<MISSING>"
"holidayinn.com","https://www.ihg.com/holidayinn/hotels/us/en/hammond/hmuqq/hoteldetail","Holiday Inn Hammond","1819 SW Railroad Avenue","Hammond","Louisiana","70403","US","hmuqq","1-985-6623877","Hotel","30.483839","-90.456887","<MISSING>"
"holidayinn.com","https://www.ihg.com/holidayinn/hotels/us/en/slidell/slidl/hoteldetail","Holiday Inn & Suites Slidell - New Orleans Area","372 Voters Road","Slidell","Louisiana","70461","US","slidl","1-985-6390890","Hotel","30.251413","-89.761621","<MISSING>"
"holidayinn.com","https://www.ihg.com/holidayinn/hotels/us/en/gretna/msywb/hoteldetail","Holiday Inn New Orleans West Bank Tower","275 Whitney Avenue","Gretna","Louisiana","70053","US","msywb","1-504-3668535","Hotel","29.926459","-90.040215","<MISSING>"
"holidayinn.com","https://www.ihg.com/holidayinn/hotels/us/en/new-orleans/msydt/hoteldetail","Holiday Inn New Orleans-Downtown Superdome","330 Loyola Avenue","New Orleans","Louisiana","70112","US","msydt","1-504-5811600","Hotel","29.952803","-90.075358","<MISSING>"
"holidayinn.com","https://www.ihg.com/holidayinn/hotels/us/en/new-orleans/msycl/hoteldetail","Holiday Inn French Quarter-Chateau LeMoyne","301  Dauphine Street","New Orleans","Louisiana","70112","US","msycl","1-504-5811303","Hotel","29.9566","-90.0691","<MISSING>"
"holidayinn.com","https://www.ihg.com/holidayinn/hotels/us/en/metairie/msyme/hoteldetail","Holiday Inn Metairie New Orleans Airport","2261 N. Causeway Blvd.","Metairie","Louisiana","70001","US","msyme","1-504-3735946","Hotel","29.992625","-90.15556","<MISSING>"
"holidayinn.com","https://www.ihg.com/holidayinn/hotels/us/en/kenner/msyve/hoteldetail","Holiday Inn New Orleans Airport North","1300 Veterans Boulevard","Kenner","Louisiana","70062","US","msyve","1-504-3255720","Hotel","30.006853","-90.250139","<MISSING>"
"holidayinn.com","https://www.ihg.com/holidayinn/hotels/us/en/houma/hummb/hoteldetail","Holiday Inn Houma","1800 Martin Luther King Blvd.","Houma","Louisiana","70360","US","hummb","1-985-6014500","Hotel","29.616318","-90.757293","<MISSING>"
"holidayinn.com","https://www.ihg.com/holidayinn/hotels/us/en/lafayette/lftlf/hoteldetail","Holiday Inn & Suites Lafayette North","2219 NW Evangeline Thruway","Lafayette","Louisiana","70501","US","lftlf","1-337-7068199","Hotel","30.253434","-92.016837","<MISSING>"
"holidayinn.com","https://www.ihg.com/holidayinn/hotels/us/en/opelousas/oplcr/hoteldetail","Holiday Inn & Suites Opelousas","5696 I-49 North Service rd.","Opelousas","Louisiana","70570","US","oplcr","1-337-9483300","Hotel","30.516409","-92.067854","<MISSING>"
"holidayinn.com","https://www.ihg.com/holidayinn/hotels/us/en/lake-charles/lchtt/hoteldetail","Holiday Inn & Suites Lake Charles South","2940 Lake Street","Lake Charles","Louisiana","70601","US","lchtt","1-337-3107700","Hotel","30.202717","-93.232339","<MISSING>"
"holidayinn.com","https://www.ihg.com/holidayinn/hotels/us/en/shreveport/shvdt/hoteldetail","Holiday Inn Shreveport Downtown","102 Lake Street","Shreveport","Louisiana","71101","US","shvdt","1-318-2227717","Hotel","32.511975","-93.743087","<MISSING>"
"holidayinn.com","https://www.ihg.com/holidayinn/hotels/us/en/bangor/bgror/hoteldetail","Holiday Inn Bangor","404 Odlin Road","Bangor","Maine","04401","US","bgror","1-207-9470101","Hotel","44.7868","-68.8131","<MISSING>"
"holidayinn.com","https://www.ihg.com/holidayinn/hotels/us/en/portland/pwmdt/hoteldetail","Holiday Inn Portland-By The Bay","88 Spring St","Portland","Maine","04101","US","pwmdt","1-207-7752311","Hotel","43.653559","-70.261332","<MISSING>"
"holidayinn.com","https://www.ihg.com/holidayinn/hotels/us/en/belcamp/apgmp/hoteldetail","Holiday Inn Belcamp - Aberdeen Area","1326 Policy Drive","Belcamp","Maryland","21017","US","apgmp","1-410-2722929","Hotel","39.4778437","-76.2496529","<MISSING>"
"holidayinn.com","https://www.ihg.com/holidayinn/hotels/us/en/timonium/baltn/hoteldetail","Holiday Inn Timonium - Baltimore North","9615 Deereco Road","Timonium","Maryland","21093","US","baltn","1-410-5601000","Hotel","39.453598","-76.640218","<MISSING>"
"holidayinn.com","https://www.ihg.com/holidayinn/hotels/us/en/ocean-city/oceaa/hoteldetail","Holiday Inn & Suites Ocean City","1701 Atlantic Avenue","Ocean City","Maryland","21842","US","oceaa","1-410-2897263","Hotel","38.346769","-75.078085","<MISSING>"
"holidayinn.com","https://www.ihg.com/holidayinn/hotels/us/en/ocean-city/ocemd/hoteldetail","Holiday Inn Ocean City","6600 Coastal Hwy","Ocean City","Maryland","21842","US","ocemd","1-410-5241600","Hotel","38.388136","-75.065191","<MISSING>"
"holidayinn.com","https://www.ihg.com/holidayinn/hotels/us/en/solomons/slmmd/hoteldetail","Holiday Inn Solomons-Conf Center & Marina","155 Holiday Drive, P.O. Box 1099","Solomons","Maryland","20688","US","slmmd","1-410-3266311","Hotel","38.337048","-76.465401","<MISSING>"
"holidayinn.com","https://www.ihg.com/holidayinn/hotels/us/en/chelsea/bosch/hoteldetail","Holiday Inn Boston Logan Airport - Chelsea","1012 Broadway","Chelsea","Massachusetts","02150","US","bosch","1-617-8843330","Hotel","42.403131","-71.018872","<MISSING>"
"holidayinn.com","https://www.ihg.com/holidayinn/hotels/us/en/somerville/bossv/hoteldetail","Holiday Inn Boston Bunker Hill Area","30 Washington Street","Somerville","Massachusetts","02143","US","bossv","1-617-6281000","Hotel","42.381856","-71.082562","<MISSING>"
"holidayinn.com","https://www.ihg.com/holidayinn/hotels/us/en/peabody/bospb/hoteldetail","Holiday Inn & Suites Boston-Peabody","1 Newbury Street","Peabody","Massachusetts","01960","US","bospb","1-978-5354600","Hotel","42.5188","-70.9983","<MISSING>"
"holidayinn.com","https://www.ihg.com/holidayinn/hotels/us/en/dedham/bosdh/hoteldetail","Holiday Inn Boston-Dedham Htl & Conf Ctr","55 Ariadne Road","Dedham","Massachusetts","02026","US","bosdh","1-781-3291000","Hotel","42.2319","-71.1832","<MISSING>"
"holidayinn.com","https://www.ihg.com/holidayinn/hotels/us/en/tewksbury/andma/hoteldetail","Holiday Inn Tewksbury-Andover","4 Highwood Drive","Tewksbury","Massachusetts","01876","US","andma","1-978-6409000","Hotel","42.642802","-71.236569","<MISSING>"
"holidayinn.com","https://www.ihg.com/holidayinn/hotels/us/en/mansfield/bosmf/hoteldetail","Holiday Inn Mansfield-Foxboro Area","31 Hampshire Street","Mansfield","Massachusetts","02048","US","bosmf","1-508-3392200 +0","Hotel","42.02803","-71.248781","<MISSING>"
"holidayinn.com","https://www.ihg.com/holidayinn/hotels/us/en/marlborough/mbrma/hoteldetail","Holiday Inn & Suites Marlborough","265 Lakeside Avenue","Marlborough","Massachusetts","01752","US","mbrma","1-508-4813000","Hotel","42.3422","-71.5733","<MISSING>"
"holidayinn.com","https://www.ihg.com/holidayinn/hotels/us/en/salem/selnh/hoteldetail","Holiday Inn Salem (I-93 At Exit 2)","1 Keewaydin Drive","Salem","New Hampshire","03079","US","selnh","1-603-8935511","Hotel","42.77623","-71.247179","<MISSING>"
"holidayinn.com","https://www.ihg.com/holidayinn/hotels/us/en/taunton/tauma/hoteldetail","Holiday Inn Taunton-Foxboro Area","700 Myles Standish Blvd","Taunton","Massachusetts","02780","US","tauma","1-508-8230430","Hotel","41.96019","-71.12944","<MISSING>"
"holidayinn.com","https://www.ihg.com/holidayinn/hotels/us/en/falmouth/fmhma/hoteldetail","Holiday Inn Cape Cod-Falmouth","291 Jones Road","Falmouth","Massachusetts","02540","US","fmhma","1-508-5402000 +0","Hotel","41.560439","-70.608333","<MISSING>"
"holidayinn.com","https://www.ihg.com/holidayinn/hotels/us/en/hyannis/hyahi/hoteldetail","Holiday Inn Cape Cod - Hyannis","1127 Iyannough Rd.","Hyannis","Massachusetts","02601","US","hyahi","1-508-7751153","Hotel","41.673794","-70.306778","<MISSING>"
"holidayinn.com","https://www.ihg.com/holidayinn/hotels/us/en/nashua/ashnh/hoteldetail","Holiday Inn & Suites Nashua","9 Northeastern Blvd","Nashua","New Hampshire","03062","US","ashnh","1-603-8881551","Hotel","42.73275","-71.477399","<MISSING>"
"holidayinn.com","https://www.ihg.com/holidayinn/hotels/us/en/north-adams/nadma/hoteldetail","Holiday Inn Berkshires","40 Main Street","North Adams","Massachusetts","01247","US","nadma","1-413-6636500","Hotel","42.699333","-73.113432","<MISSING>"
"holidayinn.com","https://www.ihg.com/holidayinn/hotels/us/en/pittsfield/ptfma/hoteldetail","Holiday Inn & Suites Pittsfield-Berkshires","One West Street","Pittsfield","Massachusetts","01201","US","ptfma","1-413-4992000","Hotel","42.4483","-73.2541","<MISSING>"
"holidayinn.com","https://www.ihg.com/holidayinn/hotels/us/en/manchester/mhtba/hoteldetail","Holiday Inn Manchester Airport","2280 Brown Avenue","Manchester","New Hampshire","03103","US","mhtba","1-603-6416466","Hotel","42.944648","-71.45253","<MISSING>"
"holidayinn.com","https://www.ihg.com/holidayinn/hotels/us/en/ann-arbor/arbep/hoteldetail","Holiday Inn & Suites Ann Arbor Univ. Michigan Area","3155 Boardwalk Drive","Ann Arbor","Michigan","48108","US","arbep","1-734-2131900","Hotel","42.241335","-83.734699","<MISSING>"
"holidayinn.com","https://www.ihg.com/holidayinn/hotels/us/en/livonia/dttlv/hoteldetail","Holiday Inn Detroit Northwest - Livonia","17123 N. Laurel Park Dr. N","Livonia","Michigan","48152","US","dttlv","1-734-2454700","Hotel","42.41240519999999","-83.4210774","<MISSING>"
"holidayinn.com","https://www.ihg.com/holidayinn/hotels/us/en/romulus/dttms/hoteldetail","Holiday Inn Detroit Metro Airport","8400 Merriman Road","Romulus","Michigan","48174","US","dttms","1-734-7298400","Hotel","42.243684","-83.346926","<MISSING>"
"holidayinn.com","https://www.ihg.com/holidayinn/hotels/us/en/farmington-hills/dttfa/hoteldetail","Holiday Inn & Suites Farmington Hills - Detroit NW","33103 Hamilton Court","Farmington Hills","Michigan","48334","US","dttfa","1-248-5161280","Hotel","42.4987269","-83.3750558","<MISSING>"
"holidayinn.com","https://www.ihg.com/holidayinn/hotels/us/en/southgate/dttsg/hoteldetail","Holiday Inn Southgate (Detroit-South)","17201 Northline Road","Southgate","Michigan","48195","US","dttsg","1-734-2834400","Hotel","42.213194","-83.220163","<MISSING>"
"holidayinn.com","https://www.ihg.com/holidayinn/hotels/us/en/battle-creek/btlbc/hoteldetail","Holiday Inn Battle Creek","12812 Harper Village Drive","Battle Creek","Michigan","49014","US","btlbc","1-269-9790500","Hotel","42.266393","-85.173426","<MISSING>"
"holidayinn.com","https://www.ihg.com/holidayinn/hotels/us/en/kalamazoo/azoss/hoteldetail","Holiday Inn & Suites Kalamazoo West","1247 Westgate Drive","Kalamazoo","Michigan","49009","US","azoss","1-269-8884800","Hotel","42.300192","-85.662133","<MISSING>"
"holidayinn.com","https://www.ihg.com/holidayinn/hotels/us/en/big-rapids/brpmi/hoteldetail","Holiday Inn Big Rapids","1005 Perry Street","Big Rapids","Michigan","49307","US","brpmi","1-231-7964400","Hotel","43.688273","-85.506576","<MISSING>"
"holidayinn.com","https://www.ihg.com/holidayinn/hotels/us/en/warren/dttwm/hoteldetail","Holiday Inn & Suites Warren","30000 Van Dyke Avenue","Warren","Michigan","48093","US","dttwm","1-586-5737600","Hotel","42.514059","-83.028646","<MISSING>"
"holidayinn.com","https://www.ihg.com/holidayinn/hotels/us/en/flint/fntmi/hoteldetail","Holiday Inn Flint - Grand Blanc Area","5353 Gateway Centre","Flint","Michigan","48507","US","fntmi","1-810-2325300","Hotel","42.9471523654","-83.720188289","<MISSING>"
"holidayinn.com","https://www.ihg.com/holidayinn/hotels/us/en/grand-rapids/grrpe/hoteldetail","Holiday Inn Grand Rapids Downtown","310 Pearl Street NW","Grand Rapids","Michigan","49504","US","grrpe","1-616-2357611","Hotel","42.966555","-85.677202","<MISSING>"
"holidayinn.com","https://www.ihg.com/holidayinn/hotels/us/en/walker/grrwk/hoteldetail","Holiday Inn Grand Rapids North - Walker","2280 Northridge Drive NW","Walker","Michigan","49544","US","grrwk","1-616-7852100","Hotel","43.0255401","-85.72800440000002","<MISSING>"
"holidayinn.com","https://www.ihg.com/holidayinn/hotels/us/en/grand-rapids/grrpd/hoteldetail","Holiday Inn Grand Rapids - Airport","3063 Lake Eastbrook","Grand Rapids","Michigan","49512","US","grrpd","1-616-2857600","Hotel","42.908064","-85.574733","<MISSING>"
"holidayinn.com","https://www.ihg.com/holidayinn/hotels/us/en/grand-rapids/byomi/hoteldetail","Holiday Inn Grand Rapids - South","6569 Clay Avenue Sw","Grand Rapids","Michigan","49548","US","byomi","1-616-8719700","Hotel","42.842669","-85.674876","<MISSING>"
"holidayinn.com","https://www.ihg.com/holidayinn/hotels/us/en/spring-lake/grhmi/hoteldetail","Holiday Inn Grand Haven-Spring Lake","940 W Savidge Street","Spring Lake","Michigan","49456","US","grhmi","1-616-8461000","Hotel","43.076375","-86.212329","<MISSING>"
"holidayinn.com","https://www.ihg.com/holidayinn/hotels/us/en/jackson/jxnar/hoteldetail","Holiday Inn Jackson NW - Airport Road","2696 Bob McClain Dr","Jackson","Michigan","49202","US","jxnar","1-517-7899600","Hotel","42.2708","-84.44736","<MISSING>"
"holidayinn.com","https://www.ihg.com/holidayinn/hotels/us/en/marquette/mqtmi/hoteldetail","Holiday Inn Marquette","1951 US 41 West","Marquette","Michigan","49855","US","mqtmi","1-906-2251351","Hotel","46.546495","-87.429439","<MISSING>"
"holidayinn.com","https://www.ihg.com/holidayinn/hotels/us/en/midland/mldmd/hoteldetail","Holiday Inn Midland","810 Cinema Drive","Midland","Michigan","48642","US","mldmd","1-989-7948500","Hotel","43.6574","-84.23695","<MISSING>"
"holidayinn.com","https://www.ihg.com/holidayinn/hotels/us/en/mount-pleasant/mptps/hoteldetail","Holiday Inn & Suites Mount Pleasant","5278 East Pickard Street","Mount Pleasant","Michigan","48858","US","mptps","1-989-3178686","Hotel","43.6116558","-84.7428348","<MISSING>"
"holidayinn.com","https://www.ihg.com/holidayinn/hotels/us/en/alexandria/alemn/hoteldetail","Holiday Inn Alexandria","5637 Highway 29 South, Po Box 1087","Alexandria","Minnesota","56308","US","alemn","1-320-7636577","Hotel","45.8392","-95.3879","<MISSING>"
"holidayinn.com","https://www.ihg.com/holidayinn/hotels/us/en/austin/aummn/hoteldetail","Holiday Inn Austin Conference Center","1701 4th Street Nw","Austin","Minnesota","55912","US","aummn","1-507-4331000","Hotel","43.6806","-92.9797","<MISSING>"
"holidayinn.com","https://www.ihg.com/holidayinn/hotels/us/en/bloomington/mspso/hoteldetail","Holiday Inn Blmgtn Arpt South- Mall Area","1201 West 94th Street","Bloomington","Minnesota","55431","US","mspso","1-952-8848211","Hotel","44.833502","-93.295734","<MISSING>"
"holidayinn.com","https://www.ihg.com/holidayinn/hotels/us/en/bloomington/mspam/hoteldetail","Holiday Inn Bloomington W MSP Airport Area","5120 American Blvd West","Bloomington","Minnesota","55437","US","mspam","1-612-4525510","Hotel","44.8569581","-93.3486379","<MISSING>"
"holidayinn.com","https://www.ihg.com/holidayinn/hotels/us/en/eagan/eagmn/hoteldetail","Holiday Inn Minneapolis Airport SE - Eagan","2700 Pilot Knob Road","Eagan","Minnesota","55121","US","eagmn","1-651-4543434","Hotel","44.858309","-93.167063","<MISSING>"
"holidayinn.com","https://www.ihg.com/holidayinn/hotels/us/en/st-paul/mspal/hoteldetail","Holiday Inn St. Paul Downtown","175 West 7th Street","St. Paul","Minnesota","55102","US","mspal","1-651-2251515","Hotel","44.944619","-93.102908","<MISSING>"
"holidayinn.com","https://www.ihg.com/holidayinn/hotels/us/en/lakeville/lkvmn/hoteldetail","Holiday Inn & Suites Minneapolis - Lakeville","20800 Kenrick Avenue","Lakeville","Minnesota","55044","US","lkvmn","1-952-4691134","Hotel","44.647847","-93.292936","<MISSING>"
"holidayinn.com","https://www.ihg.com/holidayinn/hotels/us/en/maple-grove/mpgmn/hoteldetail","Holiday Inn & Suites Maple Grove NW Mpls-Arbor Lks","11801 Fountains Way N","Maple Grove","Minnesota","55369","US","mpgmn","1-763-4253800","Hotel","45.091562","-93.427675","<MISSING>"
"holidayinn.com","https://www.ihg.com/holidayinn/hotels/us/en/lake-elmo/msple/hoteldetail","Holiday Inn & Suites St. Paul NE - Lake Elmo","8511 Hudson Boulevard","Lake Elmo","Minnesota","55042","US","msple","1-651-7148068","Hotel","44.95257","-92.931759","<MISSING>"
"holidayinn.com","https://www.ihg.com/holidayinn/hotels/us/en/detroit-lakes/dtlmn/hoteldetail","Holiday Inn Detroit Lakes - Lakefront","1155 Hwy 10 East","Detroit Lakes","Minnesota","56501-4215","US","dtlmn","1-218-8472121","Hotel","46.805428","-95.816477","<MISSING>"
"holidayinn.com","https://www.ihg.com/holidayinn/hotels/us/en/duluth/dulmn/hoteldetail","Holiday Inn & Suites Duluth-Downtown","200 West First Street","Duluth","Minnesota","55802","US","dulmn","1-218-7221202","Hotel","46.785759","-92.101778","<MISSING>"
"holidayinn.com","https://www.ihg.com/holidayinn/hotels/us/en/fairmont/frmmn/hoteldetail","Holiday Inn Fairmont","1201 Torgerson Drive","Fairmont","Minnesota","56031-0902","US","frmmn","1-507-2384771","Hotel","43.6794","-94.4478","<MISSING>"
"holidayinn.com","https://www.ihg.com/holidayinn/hotels/us/en/otsego/otsmn/hoteldetail","Holiday Inn Minneapolis NW-Elk River","9200 Quaday Avenue Ne","Otsego","Minnesota","55330","US","otsmn","1-763-6564400","Hotel","45.283996","-93.564185","<MISSING>"
"holidayinn.com","https://www.ihg.com/holidayinn/hotels/us/en/st-cloud/stcmn/hoteldetail","Holiday Inn & Suites St. Cloud","75 S 37th  Avenue","St. Cloud","Minnesota","56301","US","stcmn","1-320-2539000","Hotel","45.5516","-94.2041","<MISSING>"
"holidayinn.com","https://www.ihg.com/holidayinn/hotels/us/en/batesville/bavms/hoteldetail","Holiday Inn Batesville","210 Power Drive","Batesville","Mississippi","38606","US","bavms","1-662-5631234","Hotel","34.309544","-89.927635","<MISSING>"
"holidayinn.com","https://www.ihg.com/holidayinn/hotels/us/en/gulfport/gptcr/hoteldetail","Holiday Inn Gulfport-Airport","9515 Highway 49","Gulfport","Mississippi","39503","US","gptcr","1-228-6791700","Hotel","30.427009","-89.092566","<MISSING>"
"holidayinn.com","https://www.ihg.com/holidayinn/hotels/us/en/hattiesburg/hbghb/hoteldetail","Holiday Inn Hattiesburg - North","6553 US Hwy 49","Hattiesburg","Mississippi","39401","US","hbghb","1-601-9909340","Hotel","31.348939","-89.33981999999999","<MISSING>"
"holidayinn.com","https://www.ihg.com/holidayinn/hotels/us/en/meridian/meihi/hoteldetail","Holiday Inn Meridian E - I 20/I 59","100 North Frontage Road","Meridian","Mississippi","39301","US","meihi","1-601-6930160","Hotel","32.367359","-88.674738","<MISSING>"
"holidayinn.com","https://www.ihg.com/holidayinn/hotels/us/en/pearl/janbp/hoteldetail","Holiday Inn Pearl - Jackson Area","110 Bass Pro Drive","Pearl","Mississippi","39208","US","janbp","1-601-9395238","Hotel","32.272201","-90.148864","<MISSING>"
"holidayinn.com","https://www.ihg.com/holidayinn/hotels/us/en/southaven/svncr/hoteldetail","Holiday Inn Southaven Central - Memphis","280 Marathon Way","Southaven","Mississippi","38671","US","svncr","1-662-3490444","Hotel","34.957686","-89.987519","<MISSING>"
"holidayinn.com","https://www.ihg.com/holidayinn/hotels/us/en/memphis/memdr/hoteldetail","Holiday Inn Memphis Airport - Conf Ctr","2240 Democrat Road","Memphis","Tennessee","38132","US","memdr","1-901-3321130","Hotel","35.068742","-89.989366","<MISSING>"
"holidayinn.com","https://www.ihg.com/holidayinn/hotels/us/en/memphis/memkw/hoteldetail","Holiday Inn Memphis-Univ Of Memphis","3700 Central Avenue","Memphis","Tennessee","38111","US","memkw","1-901-6788200","Hotel","35.123002","-89.938875","<MISSING>"
"holidayinn.com","https://www.ihg.com/holidayinn/hotels/us/en/memphis/memdn/hoteldetail","Holiday Inn Memphis-Downtown (Beale St.)","160 Union Avenue","Memphis","Tennessee","38103","US","memdn","1-901-5255491","Hotel","35.143","-90.0522","<MISSING>"
"holidayinn.com","https://www.ihg.com/holidayinn/hotels/us/en/memphis/membb/hoteldetail","Holiday Inn & Suites Memphis Southeast-Germantown","7730 Centennial Drive","Memphis","Tennessee","38125","US","membb","1-901-7300015","Hotel","35.0470145","-89.8034152","<MISSING>"
"holidayinn.com","https://www.ihg.com/holidayinn/hotels/us/en/memphis/memwg/hoteldetail","Holiday Inn & Suites Memphis -  Wolfchase Galleria","2751 New Brunswick Road","Memphis","Tennessee","38133","US","memwg","1-901-2661952","Hotel","35.2018","-89.78105","<MISSING>"
"holidayinn.com","https://www.ihg.com/holidayinn/hotels/us/en/tupelo/tupel/hoteldetail","Holiday Inn & Suites Tupelo North","923 North Gloster","Tupelo","Mississippi","38804","US","tupel","1-662-2690096","Hotel","34.269756","-88.715682","<MISSING>"
"holidayinn.com","https://www.ihg.com/holidayinn/hotels/us/en/vicksburg/vkssf/hoteldetail","Holiday Inn Vicksburg","115 Cypress Centre Boulevard","Vicksburg","Mississippi","39180","US","vkssf","1-601-6304240","Hotel","32.318779","-90.87296","<MISSING>"
"holidayinn.com","https://www.ihg.com/holidayinn/hotels/us/en/columbia/coucc/hoteldetail","Holiday Inn Executive Center-Columbia Mall","2200 I-70 Drive S.W.","Columbia","Missouri","65203","US","coucc","1-573-4458531","Hotel","38.967862","-92.372678","<MISSING>"
"holidayinn.com","https://www.ihg.com/holidayinn/hotels/us/en/columbia/coumo/hoteldetail","Holiday Inn Columbia-East","915 Port Way","Columbia","Missouri","65201","US","coumo","1-573-4744444","Hotel","38.956973","-92.251395","<MISSING>"
"holidayinn.com","https://www.ihg.com/holidayinn/hotels/us/en/jefferson-city/jefel/hoteldetail","Holiday Inn & Suites Jefferson City","1590 Jefferson Street","Jefferson City","Missouri","65109","US","jefel","1-573-6589077","Hotel","38.5611349","-92.1894157","<MISSING>"
"holidayinn.com","https://www.ihg.com/holidayinn/hotels/us/en/eureka/eerek/hoteldetail","Holiday Inn Saint Louis West At Six Flags","4901 Six Flags Road","Eureka","Missouri","63025","US","eerek","1-636-9386661","Hotel","38.5065","-90.6755","<MISSING>"
"holidayinn.com","https://www.ihg.com/holidayinn/hotels/us/en/joplin/jnljo/hoteldetail","Holiday Inn Joplin","3402  Arizona Avenue","Joplin","Missouri","64804","US","jnljo","1-417-6249000","Hotel","37.051414","-94.481318","<MISSING>"
"holidayinn.com","https://www.ihg.com/holidayinn/hotels/us/en/poplar-bluff/pofmo/hoteldetail","Holiday Inn Poplar Bluff","2781 N. Westwood Blvd.","Poplar Bluff","Missouri","63901","US","pofmo","1-573-7761200","Hotel","36.786017","-90.429701","<MISSING>"
"holidayinn.com","https://www.ihg.com/holidayinn/hotels/us/en/springfield/sgfno/hoteldetail","Holiday Inn & Suites Springfield - I-44","2720 North Glenstone Ave","Springfield","Missouri","65803","US","sgfno","1-417-8658600","Hotel","37.245802","-93.260596","<MISSING>"
"holidayinn.com","https://www.ihg.com/holidayinn/hotels/us/en/bozeman/bznmt/hoteldetail","Holiday Inn Bozeman","5 Baxter Lane","Bozeman","Montana","59715","US","bznmt","1-406-5874561","Hotel","45.695755","-111.048446","<MISSING>"
"holidayinn.com","https://www.ihg.com/holidayinn/hotels/us/en/great-falls/gfamt/hoteldetail","Holiday Inn Great Falls-Convention Center","1100 5th Street South","Great Falls","Montana","59405","US","gfamt","1-406-7277200","Hotel","47.4942","-111.300899","<MISSING>"
"holidayinn.com","https://www.ihg.com/holidayinn/hotels/us/en/missoula/msumt/hoteldetail","Holiday Inn Missoula Downtown","200 South Pattee","Missoula","Montana","59802","US","msumt","1-406-7218550","Hotel","46.8682","-113.9945","<MISSING>"
"holidayinn.com","https://www.ihg.com/holidayinn/hotels/us/en/west-yellowstone/wysmt/hoteldetail","Holiday Inn West Yellowstone","315 Yellowstone Ave","West Yellowstone","Montana","59758","US","wysmt","1-406-6467365","Hotel","44.658743","-111.104522","<MISSING>"
"holidayinn.com","https://www.ihg.com/holidayinn/hotels/us/en/kearney/earnk/hoteldetail","Holiday Inn Kearney","110 2nd Avenue","Kearney","Nebraska","68847","US","earnk","1-308-2375971","Hotel","40.672613","-99.085995","<MISSING>"
"holidayinn.com","https://www.ihg.com/holidayinn/hotels/us/en/lincoln/lnkpz/hoteldetail","Holiday Inn Lincoln Southwest","2500 Tamarin Ridge Road","Lincoln","Nebraska","68512","US","lnkpz","1-402-4211893","Hotel","40.73506","-96.686289","<MISSING>"
"holidayinn.com","https://www.ihg.com/holidayinn/hotels/us/en/concord/ccddt/hoteldetail","Holiday Inn Concord Downtown","172 North Main Street","Concord","New Hampshire","03301","US","ccddt","1-603-2249534","Hotel","43.210219","-71.537774","<MISSING>"
"holidayinn.com","https://www.ihg.com/holidayinn/hotels/us/en/portsmouth/psmnh/hoteldetail","Holiday Inn Portsmouth","300 Woodbury Ave","Portsmouth","New Hampshire","03801","US","psmnh","1-603-4318000","Hotel","43.074098","-70.777647","<MISSING>"
"holidayinn.com","https://www.ihg.com/holidayinn/hotels/us/en/budd-lake/ewrbl/hoteldetail","Holiday Inn Budd Lake - Rockaway Area","1000 International Drive North","Budd Lake","New Jersey","07828","US","ewrbl","1-973-4481100","Hotel","40.90882","-74.725539","<MISSING>"
"holidayinn.com","https://www.ihg.com/holidayinn/hotels/us/en/parsippany/pasnj/hoteldetail","Holiday Inn & Suites Parsippany Fairfield","707 Route 46 East","Parsippany","New Jersey","07054","US","pasnj","1-973-2632000","Hotel","40.8623","-74.3777","<MISSING>"
"holidayinn.com","https://www.ihg.com/holidayinn/hotels/us/en/clinton/connj/hoteldetail","Holiday Inn Clinton - Bridgewater","111 West Main Street","Clinton","New Jersey","08809","US","connj","1-908-7355111","Hotel","40.633353","-74.923757","<MISSING>"
"holidayinn.com","https://www.ihg.com/holidayinn/hotels/us/en/south-plainfield/pnfnj/hoteldetail","Holiday Inn South Plainfield-Piscataway","4701 Stelton Road","South Plainfield","New Jersey","07080","US","pnfnj","1-908-7535500","Hotel","40.55522","-74.434159","<MISSING>"
"holidayinn.com","https://www.ihg.com/holidayinn/hotels/us/en/clark/clknj/hoteldetail","Holiday Inn Clark - Newark Area","36 Valley Road","Clark","New Jersey","07066","US","clknj","1-732-5740100","Hotel","40.626631","-74.301874","<MISSING>"
"holidayinn.com","https://www.ihg.com/holidayinn/hotels/us/en/cherry-hill/chhnj/hoteldetail","Holiday Inn Philadelphia-Cherry Hill","2175 Marlton Pike Rd West","Cherry Hill","New Jersey","08002","US","chhnj","1-856-6635300","Hotel","39.921802","-75.040198","<MISSING>"
"holidayinn.com","https://www.ihg.com/holidayinn/hotels/us/en/bensalem/phlbe/hoteldetail","Holiday Inn Bensalem-Philadelphia Area","3327 Street Road","Bensalem","Pennsylvania","19020","US","phlbe","1-215-6399100 +107","Hotel","40.119437","-74.958393","<MISSING>"
"holidayinn.com","https://www.ihg.com/holidayinn/hotels/us/en/drexel-hill/phldh/hoteldetail","Holiday Inn & Suites Philadelphia W - Drexel Hill","5400 Ferne Blvd.","Drexel Hill","Pennsylvania","19026","US","phldh","1-484-4619820","Hotel","39.9449257","-75.3144329","<MISSING>"
"holidayinn.com","https://www.ihg.com/holidayinn/hotels/us/en/swedesboro/bdgnj/hoteldetail","Holiday Inn Philadelphia South-Swedesboro","1 Pureland Dr.","Swedesboro","New Jersey","08085","US","bdgnj","1-856-4673322","Hotel","39.75876","-75.360799","<MISSING>"
"holidayinn.com","https://www.ihg.com/holidayinn/hotels/us/en/kulpsville/phlku/hoteldetail","Holiday Inn Lansdale - Hatfield","1750 Sumneytown Pike","Kulpsville","Pennsylvania","19443","US","phlku","1-215-3683800","Hotel","40.2454","-75.3386","<MISSING>"
"holidayinn.com","https://www.ihg.com/holidayinn/hotels/us/en/newark/ewrhi/hoteldetail","Holiday Inn Newark Airport","450 US Route 1 & 9","Newark","New Jersey","07114","US","ewrhi","1-973-2420900","Hotel","40.699481","-74.18667","<MISSING>"
"holidayinn.com","https://www.ihg.com/holidayinn/hotels/us/en/newark/ewrhl/hoteldetail","Holiday Inn Newark Intl Airport - North","160 Frontage Road","Newark","<MISSING>","07114","US","ewrhl","1-973-5891000","Hotel","40.7129085","-74.166439","<MISSING>"
"holidayinn.com","https://www.ihg.com/holidayinn/hotels/us/en/new-york/nycwa/hoteldetail","Holiday Inn Manhattan-Financial District","99 Washington Street","New York","New York","10006","US","nycwa","1-212-7912900","Hotel","40.708308","-74.014323","<MISSING>"
"holidayinn.com","https://www.ihg.com/holidayinn/hotels/us/en/new-york/nycmf/hoteldetail","Holiday Inn New York City - Wall Street","51 Nassau Street","New York","New York","10038","US","nycmf","1-212-2273007","Hotel","40.708928","-74.009025","<MISSING>"
"holidayinn.com","https://www.ihg.com/holidayinn/hotels/us/en/hazlet/hztnj/hoteldetail","Holiday Inn Hazlet","2870 Highway 35","Hazlet","New Jersey","07730","US","hztnj","1-732-8882000","Hotel","40.417167","-74.171569","<MISSING>"
"holidayinn.com","https://www.ihg.com/holidayinn/hotels/us/en/secaucus/hmnnj/hoteldetail","Holiday Inn Secaucus Meadowlands","300 Plaza Drive","Secaucus","New Jersey","07094","US","hmnnj","1-201-3482000","Hotel","40.786526","-74.0428","<MISSING>"
"holidayinn.com","https://www.ihg.com/holidayinn/hotels/us/en/brooklyn/lgabr/hoteldetail","Holiday Inn Brooklyn Downtown","300 Schermerhorn Street","Brooklyn","New York","11217","US","lgabr","1-718-6242211","Hotel","40.687516","-73.982327","<MISSING>"
"holidayinn.com","https://www.ihg.com/holidayinn/hotels/us/en/new-york/nyces/hoteldetail","Holiday Inn NYC - Lower East Side","150 Delancey Street","New York","New York","10002","US","nyces","1-212-4752500","Hotel","40.718292","-73.98624","<MISSING>"
"holidayinn.com","https://www.ihg.com/holidayinn/hotels/us/en/new-york/nycvc/hoteldetail","Holiday Inn Manhattan 6th Ave - Chelsea","125 West 26th Street","New York City","New York","10001","US","nycvc","1-212-4308500","Hotel","40.7451","-73.992199","<MISSING>"
"holidayinn.com","https://www.ihg.com/holidayinn/hotels/us/en/new-york/nycma/hoteldetail","Holiday Inn New York City - Times Square","585 8th Avenue","New York","New York","10018","US","nycma","1-212-4736200","Hotel","40.755131","-73.99134","<MISSING>"
"holidayinn.com","https://www.ihg.com/holidayinn/hotels/us/en/hasbrouck-heights/hasnj/hoteldetail","Holiday Inn Hasbrouck Heights-Meadowlands","283 Route 17 South","Hasbrouck Heights","New Jersey","07604","US","hasnj","1-201-2889600","Hotel","40.860833","-74.067389","<MISSING>"
"holidayinn.com","https://www.ihg.com/holidayinn/hotels/us/en/long-island-city/lgali/hoteldetail","Holiday Inn L.I. City-Manhattan View","39-05 29th Street","Long Island City","New York","11101","US","lgali","1-718-7073700","Hotel","40.753092","-73.934404","<MISSING>"
"holidayinn.com","https://www.ihg.com/holidayinn/hotels/us/en/fort-lee/ftlee/hoteldetail","Holiday Inn GW Bridge-Fort Lee NYC Area","2339 Route 4 East","Fort Lee","New Jersey","07024","US","ftlee","1-201-9445000","Hotel","40.866305","-73.974061","<MISSING>"
"holidayinn.com","https://www.ihg.com/holidayinn/hotels/us/en/princeton/prnnj/hoteldetail","Holiday Inn Princeton","100 Independence Way","Princeton","New Jersey","08540","US","prnnj","1-609-5201200","Hotel","40.362173","-74.59467","<MISSING>"
"holidayinn.com","https://www.ihg.com/holidayinn/hotels/us/en/corona/nycoa/hoteldetail","Holiday Inn LaGuardia Airport","37-10 114th Street","Corona","New York","11368","US","nycoa","1-718-6512100","Hotel","40.75487","-73.853788","<MISSING>"
"holidayinn.com","https://www.ihg.com/holidayinn/hotels/us/en/east-windsor/ttnew/hoteldetail","Holiday Inn East Windsor - Cranbury Area","399 Monmouth Street","East Windsor","New Jersey","08520","US","ttnew","1-609-4487000","Hotel","40.270007","-74.506094","<MISSING>"
"holidayinn.com","https://www.ihg.com/holidayinn/hotels/us/en/jamaica/nycka/hoteldetail","Holiday Inn New York JFK Airport Area","154-71 Brookville Boulevard","Rosedale Jamaica Queens","New York","11422","US","nycka","1-718-7120100","Hotel","40.640731","-73.743325","<MISSING>"
"holidayinn.com","https://www.ihg.com/holidayinn/hotels/us/en/orangeburg/orany/hoteldetail","Holiday Inn Orangeburg-Rockland/Bergen Co","329 Route 303","Orangeburg","New York","10962","US","orany","1-845-3597000","Hotel","41.0458","-73.945245","<MISSING>"
"holidayinn.com","https://www.ihg.com/holidayinn/hotels/us/en/carle-place/nycwb/hoteldetail","Holiday Inn Westbury-Long Island","369 Old Country Rd","Carle Place","New York","11514","US","nycwb","1-516-9975000","Hotel","40.745549","-73.601294","<MISSING>"
"holidayinn.com","https://www.ihg.com/holidayinn/hotels/us/en/manahawkin/hwwnj/hoteldetail","Holiday Inn Manahawkin/Long Beach Island","151 Route 72 West","Manahawkin","New Jersey","08050","US","hwwnj","1-609-4816100","Hotel","39.690694","-74.255651","<MISSING>"
"holidayinn.com","https://www.ihg.com/holidayinn/hotels/us/en/albuquerque/abqsb/hoteldetail","Holiday Inn & Suites Albuquerque Airport","1501 Sunport Place","Albuquerque","New Mexico","87106","US","abqsb","1-505-9442255","Hotel","35.0498","-106.6331","<MISSING>"
"holidayinn.com","https://www.ihg.com/holidayinn/hotels/us/en/albuquerque/abqjs/hoteldetail","Holiday Inn & Suites Albuquerque-North I-25","5050 Jefferson Street NE","Albuquerque","New Mexico","87109","US","abqjs","1-505-9442222","Hotel","35.139024","-106.593489","<MISSING>"
"holidayinn.com","https://www.ihg.com/holidayinn/hotels/us/en/roswell/rownm/hoteldetail","Holiday Inn Roswell","3620 N. Main St","Roswell","New Mexico","88201","US","rownm","1-575-6233216","Hotel","33.442937","-104.52495","<MISSING>"
"holidayinn.com","https://www.ihg.com/holidayinn/hotels/us/en/auburn/syrau/hoteldetail","Holiday Inn Auburn-Finger Lakes Region","75 North Street","Auburn","New York","13021","US","syrau","1-315-2534531","Hotel","42.9358","-76.5664","<MISSING>"
"holidayinn.com","https://www.ihg.com/holidayinn/hotels/us/en/liverpool/syrlp/hoteldetail","Holiday Inn Syracuse-Liverpool-Exit 37","441 Electronics Parkway","Liverpool","New York","13088","US","syrlp","1-315-4571122","Hotel","43.1017","-76.188","<MISSING>"
"holidayinn.com","https://www.ihg.com/holidayinn/hotels/us/en/binghamton/bgmar/hoteldetail","Holiday Inn Binghamton Downtown","2-8 Hawley Street","Binghamton","New York","13901","US","bgmar","1-607-7221212","Hotel","42.0975","-75.9148","<MISSING>"
"holidayinn.com","https://www.ihg.com/holidayinn/hotels/us/en/elmira/elmdt/hoteldetail","Holiday Inn Elmira - Horseheads","One Holiday Plaza, 760 East Water Street","Elmira","New York","14901-3399","US","elmdt","1-607-7344211","Hotel","42.089241","-76.793305","<MISSING>"
"holidayinn.com","https://www.ihg.com/holidayinn/hotels/us/en/johnstown/jntny/hoteldetail","Holiday Inn Johnstown-Gloversville","308 North Comrie Ave","Johnstown","New York","12095-1095","US","jntny","1-518-7624686","Hotel","43.020868","-74.361872","<MISSING>"
"holidayinn.com","https://www.ihg.com/holidayinn/hotels/us/en/saratoga-springs/sgany/hoteldetail","Holiday Inn Saratoga Springs","232 Broadway","Saratoga Springs","New York","12866-4253","US","sgany","1-518-5844550","Hotel","43.076217","-73.786809","<MISSING>"
"holidayinn.com","https://www.ihg.com/holidayinn/hotels/us/en/niagara-falls/iagba/hoteldetail","Holiday Inn Niagara Falls-Scenic Downtown","114 Buffalo Avenue","Niagara Falls","New York","14303","US","iagba","1-716-2852521","Hotel","43.083559","-79.061846","<MISSING>"
"holidayinn.com","https://www.ihg.com/holidayinn/hotels/us/en/rochester/rocny/hoteldetail","Holiday Inn Rochester NY - Downtown","70 State Street","Rochester","New York","14614","US","rocny","1-585-3554811","Hotel","43.156729","-77.613467","<MISSING>"
"holidayinn.com","https://www.ihg.com/holidayinn/hotels/us/en/rochester/rocjr/hoteldetail","Holiday Inn & Suites Rochester - Marketplace","800 Jefferson Road","Rochester","New York","14623","US","rocjr","1-585-4759190","Hotel","43.087131","-77.621317","<MISSING>"
"holidayinn.com","https://www.ihg.com/holidayinn/hotels/us/en/arden/avlar/hoteldetail","Holiday Inn & Suites Arden - Asheville Airport","9 Brian Boulevard","Arden","North Carolina","28704","US","avlar","1-828-6846000","Hotel","35.4440913","-82.5330463","<MISSING>"
"holidayinn.com","https://www.ihg.com/holidayinn/hotels/us/en/asheville/avlab/hoteldetail","Holiday Inn & Suites Asheville-Biltmore Vlg Area","186 Hendersonville Road","Asheville","North Carolina","28803","US","avlab","1-828-2770026","Hotel","35.562928","-82.541798","<MISSING>"
"holidayinn.com","https://www.ihg.com/holidayinn/hotels/us/en/asheville/avlea/hoteldetail","Holiday Inn Asheville East","1450 Tunnel Road","Asheville","North Carolina","28805","US","avlea","1-828-2985611","Hotel","35.5845","-82.4619","<MISSING>"
"holidayinn.com","https://www.ihg.com/holidayinn/hotels/us/en/asheville/avlpp/hoteldetail","Holiday Inn Asheville - Biltmore West","435 Smokey Park Highway","Asheville","North Carolina","28806","US","avlpp","1-828-6652161","Hotel","35.554364","-82.641957","<MISSING>"
"holidayinn.com","https://www.ihg.com/holidayinn/hotels/us/en/boone/hkybo/hoteldetail","Holiday Inn Boone - University Area","1075 Highway 105","Boone","North Carolina","28607","US","hkybo","1-828-2640077","Hotel","36.2035218","-81.6712877","<MISSING>"
"holidayinn.com","https://www.ihg.com/holidayinn/hotels/us/en/cary/rducy/hoteldetail","Holiday Inn & Suites Raleigh-Cary (I-40 @Walnut St)","5630 Dillard Drive","Cary","North Carolina","27518","US","rducy","1-919-8511220","Hotel","35.755191","-78.73755","<MISSING>"
"holidayinn.com","https://www.ihg.com/holidayinn/hotels/us/en/morrisville/rdums/hoteldetail","Holiday Inn Raleigh-Durham Airport","930 Airport Blvd.","Morrisville","North Carolina","27560","US","rdums","1-919-4651910","Hotel","35.8558","-78.8266","<MISSING>"
"holidayinn.com","https://www.ihg.com/holidayinn/hotels/us/en/raleigh/rdusc/hoteldetail","Holiday Inn Raleigh Downtown","320 Hillsborough Street","Raleigh","North Carolina","27603","US","rdusc","1-919-8320501","Hotel","35.78058","-78.64427","<MISSING>"
"holidayinn.com","https://www.ihg.com/holidayinn/hotels/us/en/charlotte/cltdt/hoteldetail","Holiday Inn Charlotte-Center City","230 North College St","Charlotte","North Carolina","28202","US","cltdt","1-704-3355400","Hotel","35.227294","-80.840496","<MISSING>"
"holidayinn.com","https://www.ihg.com/holidayinn/hotels/us/en/charlotte/cltap/hoteldetail","Holiday Inn Charlotte-Airport Conf Ctr","2707 Little Rock Rd","Charlotte","North Carolina","28214","US","cltap","1-704-3944301","Hotel","35.240027","-80.939459","<MISSING>"
"holidayinn.com","https://www.ihg.com/holidayinn/hotels/us/en/charlotte/cltup/hoteldetail","Holiday Inn Charlotte University","8520 University Executive Park Dr","Charlotte","North Carolina","28262","US","cltup","1-704-5470999","Hotel","35.303719","-80.753617","<MISSING>"
"holidayinn.com","https://www.ihg.com/holidayinn/hotels/us/en/rock-hill/clthi/hoteldetail","Holiday Inn Rock Hill","503 Galleria Boulevard","Rock Hill","South Carolina","29730","US","clthi","1-803-3231900","Hotel","34.944258","-80.969841","<MISSING>"
"holidayinn.com","https://www.ihg.com/holidayinn/hotels/us/en/fayetteville/faycd/hoteldetail","Holiday Inn & Suites Fayetteville W-Fort Bragg Area","2501 Two Bale Lane","Fayetteville","North Carolina","28304","US","faycd","1-910-4915352","Hotel","35.025953","-79.058958","<MISSING>"
"holidayinn.com","https://www.ihg.com/holidayinn/hotels/us/en/lumberton/lbtno/hoteldetail","Holiday Inn Lumberton North - I-95","101 Wintergreen Dr.","Lumberton","North Carolina","28358","US","lbtno","1-910-6711166","Hotel","34.667796","-79.003736","<MISSING>"
"holidayinn.com","https://www.ihg.com/holidayinn/hotels/us/en/greensboro/gsohi/hoteldetail","Holiday Inn Greensboro Coliseum","3005 West Gate City Boulevard","Greensboro","North Carolina","27403","US","gsohi","1-336-2944565","Hotel","36.048859","-79.835401","<MISSING>"
"holidayinn.com","https://www.ihg.com/holidayinn/hotels/us/en/greensboro/gsoap/hoteldetail","Holiday Inn Greensboro Airport","6426 Burnt Poplar Road","Greensboro","North Carolina","27409","US","gsoap","1-336-6680421","Hotel","36.07714","-79.94742","<MISSING>"
"holidayinn.com","https://www.ihg.com/holidayinn/hotels/us/en/greenville/pgvhi/hoteldetail","Holiday Inn Greenville","203 Southwest Greenville Boulevard","Greenville","North Carolina","27834","US","pgvhi","1-252-3558300","Hotel","35.57439","-77.387864","<MISSING>"
"holidayinn.com","https://www.ihg.com/holidayinn/hotels/us/en/rocky-mount/rkmwa/hoteldetail","Holiday Inn Rocky Mount - I-95 at US 64","200 Enterprise Dr.","Rocky Mount","North Carolina","27804","US","rkmwa","1-252-9377100","Hotel","35.977491","-77.841856","<MISSING>"
"holidayinn.com","https://www.ihg.com/holidayinn/hotels/us/en/wilmington/ilmms/hoteldetail","Holiday Inn Wilmington-Market St.","5032 Market Street","Wilmington","North Carolina","28405","US","ilmms","1-910-3921101","Hotel","34.24409","-77.881768","<MISSING>"
"holidayinn.com","https://www.ihg.com/holidayinn/hotels/us/en/bismarck/bissb/hoteldetail","Holiday Inn Bismarck","3903 State Street","Bismarck","North Dakota","58503","US","bissb","1-701-7518240","Hotel","46.848342","-100.772482","<MISSING>"
"holidayinn.com","https://www.ihg.com/holidayinn/hotels/us/en/fargo/farnd/hoteldetail","Holiday Inn Fargo","3803 13th Ave S, P O Box 9555","Fargo","North Dakota","58103","US","farnd","11-701-2822700","Hotel","46.8633","-96.8456","<MISSING>"
"holidayinn.com","https://www.ihg.com/holidayinn/hotels/us/en/akron/cakfr/hoteldetail","Holiday Inn Akron West - Fairlawn","4073 Medina Rd","Akron","Ohio","44333","US","cakfr","1-330-6664131","Hotel","41.135916","-81.644357","<MISSING>"
"holidayinn.com","https://www.ihg.com/holidayinn/hotels/us/en/canton/cakbv/hoteldetail","Holiday Inn Canton (Belden Village)","4520 Everhard Rd NW","Canton","Ohio","44718","US","cakbv","1-330-4942770","Hotel","40.858361","-81.43343","<MISSING>"
"holidayinn.com","https://www.ihg.com/holidayinn/hotels/us/en/strongsville/clesv/hoteldetail","Holiday Inn Cleveland-Strongsville (Arpt)","15471 Royalton Road","Strongsville","Ohio","44136","US","clesv","1-440-2388800","Hotel","41.3125","-81.8077","<MISSING>"
"holidayinn.com","https://www.ihg.com/holidayinn/hotels/us/en/independence/clein/hoteldetail","Holiday Inn Cleveland-S Independence","6001 Rockside Rd","Independence","Ohio","44131","US","clein","1-216-5248050","Hotel","41.395859","-81.649333","<MISSING>"
"holidayinn.com","https://www.ihg.com/holidayinn/hotels/us/en/cleveland/cleea/hoteldetail","Holiday Inn Cleveland Clinic","8650 Euclid Avenue","Cleveland","Ohio","44106","US","cleea","1-216-7074200","Hotel","41.503387","-81.625926","<MISSING>"
"holidayinn.com","https://www.ihg.com/holidayinn/hotels/us/en/mayfield/clemf/hoteldetail","Holiday Inn Cleveland-Mayfield","780 Beta Drive","Mayfield","Ohio","44143","US","clemf","1-440-4619200","Hotel","41.539692","-81.444984","<MISSING>"
"holidayinn.com","https://www.ihg.com/holidayinn/hotels/us/en/mentor/cleme/hoteldetail","Holiday Inn Cleveland Northeast - Mentor","7701 Reynolds Road","Mentor","Ohio","44060","US","cleme","1-440-9517333","Hotel","41.66161","-81.37831","<MISSING>"
"holidayinn.com","https://www.ihg.com/holidayinn/hotels/us/en/columbus/cmhet/hoteldetail","Holiday Inn Columbus Dwtn-Capitol Square","175 East Town St","Columbus","Ohio","43215","US","cmhet","1-614-2213281","Hotel","39.959366","-82.994972","<MISSING>"
"holidayinn.com","https://www.ihg.com/holidayinn/hotels/us/en/columbus/cmhbi/hoteldetail","Holiday Inn Columbus - Hilliard","5495 Maxwell Place","Columbus","Ohio","43228","US","cmhbi","1-614-3351150","Hotel","39.979178","-83.146808","<MISSING>"
"holidayinn.com","https://www.ihg.com/holidayinn/hotels/us/en/fairborn/fbnpd/hoteldetail","Holiday Inn Dayton/Fairborn I-675","2800 Presidential Dr","Fairborn","Ohio","45324","US","fbnpd","1-937-4267800","Hotel","39.777001","-84.058799","<MISSING>"
"holidayinn.com","https://www.ihg.com/holidayinn/hotels/us/en/wilmington/ilnoh/hoteldetail","Holiday Inn Wilmington","123 Gano Road","Wilmington","Ohio","45177","US","ilnoh","1-937-2833200","Hotel","39.521541","-83.844288","<MISSING>"
"holidayinn.com","https://www.ihg.com/holidayinn/hotels/us/en/lima/aohli/hoteldetail","Holiday Inn & Suites Lima","803 S. Leonard Ave.","Lima","Ohio","45804","US","aohli","1-419-8794000","Hotel","40.73115","-84.0786","<MISSING>"
"holidayinn.com","https://www.ihg.com/holidayinn/hotels/us/en/mansfield/mnsoh/hoteldetail","Holiday Inn & Suites Mansfield-Conference Ctr","116 Park Avenue West","Mansfield","Ohio","44902","US","mnsoh","1-419-5256000","Hotel","40.758757","-82.519909","<MISSING>"
"holidayinn.com","https://www.ihg.com/holidayinn/hotels/us/en/maumee/toltd/hoteldetail","Holiday Inn Toledo-Maumee (I-80/90)","1705 Tollgate Drive","Maumee","Ohio","43537","US","toltd","1-419-4827777","Hotel","41.587336","-83.668327","<MISSING>"
"holidayinn.com","https://www.ihg.com/holidayinn/hotels/us/en/perrysburg/tolpo/hoteldetail","Holiday Inn & Suites Toledo Southwest - Perrysburg","27355 Carronade Drive","Perrysburg","Ohio","43551","US","tolpo","1-567-3318900","Hotel","41.546419","-83.600233","<MISSING>"
"holidayinn.com","https://www.ihg.com/holidayinn/hotels/us/en/portsmouth/htspt/hoteldetail","Holiday Inn Portsmouth Downtown","711 Second Street","Portsmouth","Ohio","45662","US","htspt","11-740-3547711","Hotel","38.73152","-82.99805","<MISSING>"
"holidayinn.com","https://www.ihg.com/holidayinn/hotels/us/en/youngstown/yngso/hoteldetail","Holiday Inn Youngstown-South (Boardman)","7410 South Ave","Youngstown","Ohio","44512","US","yngso","1-330-7261611","Hotel","41.0224","-80.6348","<MISSING>"
"holidayinn.com","https://www.ihg.com/holidayinn/hotels/us/en/ardmore/admrf/hoteldetail","Holiday Inn Ardmore I-35","2207 North Rockford Road","Ardmore","Oklahoma","73401","US","admrf","1-580-2263333","Hotel","34.197257","-97.160491","<MISSING>"
"holidayinn.com","https://www.ihg.com/holidayinn/hotels/us/en/oklahoma-city/okcnb/hoteldetail","Holiday Inn & Suites Oklahoma City North","6200 North Robinson Avenue","Oklahoma City","Oklahoma","73118","US","okcnb","1-405-2864777","Hotel","35.53504","-97.516095","<MISSING>"
"holidayinn.com","https://www.ihg.com/holidayinn/hotels/us/en/oklahoma-city/okcsw/hoteldetail","Holiday Inn Oklahoma City Airport","4401 Southwest 15th","Oklahoma City","Oklahoma","73108","US","okcsw","1-405-6017272","Hotel","35.447935","-97.598862","<MISSING>"
"holidayinn.com","https://www.ihg.com/holidayinn/hotels/us/en/oklahoma-city/okcot/hoteldetail","Holiday Inn Oklahoma City North-Quail Spgs","13800 Quail Springs Parkway","Oklahoma City","Oklahoma","73134","US","okcot","1-405-2869393","Hotel","35.610754","-97.57595","<MISSING>"
"holidayinn.com","https://www.ihg.com/holidayinn/hotels/us/en/stillwater/swonp/hoteldetail","Holiday Inn & Suites Stillwater - University West","715 S Country Club Road","Stillwater","Oklahoma","74074","US","swonp","1-405-3722445","Hotel","36.114255","-97.122983","<MISSING>"
"holidayinn.com","https://www.ihg.com/holidayinn/hotels/us/en/tulsa/tulms/hoteldetail","Holiday Inn Tulsa City Center","17 West 7th Street","Tulsa","Oklahoma","74119","US","tulms","1-918-5855898","Hotel","36.149481","-95.989231","<MISSING>"
"holidayinn.com","https://www.ihg.com/holidayinn/hotels/us/en/tulsa/tulhi/hoteldetail","Holiday Inn & Suites Tulsa South","10020 East 81st Street","Tulsa","Oklahoma","74133","US","tulhi","1-918-9945000","Hotel","36.04639","-95.864071","<MISSING>"
"holidayinn.com","https://www.ihg.com/holidayinn/hotels/us/en/hillsboro/hioho/hoteldetail","Holiday Inn Hillsboro","2575 NE Aloclek Drive","Hillsboro","Oregon","97124","US","hioho","1-503-6401745","Hotel","45.537507","-122.892951","<MISSING>"
"holidayinn.com","https://www.ihg.com/holidayinn/hotels/us/en/wilsonville/pdxso/hoteldetail","Holiday Inn Portland- I-5 S (Wilsonville)","25425 Sw 95th Avenue","Wilsonville","Oregon","97070","US","pdxso","1-503-6822211","Hotel","45.336982","-122.773376","<MISSING>"
"holidayinn.com","https://www.ihg.com/holidayinn/hotels/us/en/portland/pdxap/hoteldetail","Holiday Inn Portland-Airport (I-205)","8439 Ne Columbia Boulevard","Portland","Oregon","97220-1382","US","pdxap","1-503-2565000","Hotel","45.564288","-122.574424","<MISSING>"
"holidayinn.com","https://www.ihg.com/holidayinn/hotels/us/en/salem/slems/hoteldetail","Holiday Inn Salem","3301 Market St. NE","Salem","Oregon","97301","US","slems","1-503-3707888","Hotel","44.9511166","-122.9941417","<MISSING>"
"holidayinn.com","https://www.ihg.com/holidayinn/hotels/us/en/allentown/abehb/hoteldetail","Holiday Inn Allentown-Bethlehem","4325 Hamilton Boulevard","Allentown","Pennsylvania","18103","US","abehb","1-610-3661600","Hotel","40.57176140000001","-75.54299999999999","<MISSING>"
"holidayinn.com","https://www.ihg.com/holidayinn/hotels/us/en/dunmore/scred/hoteldetail","Holiday Inn Scranton East - Dunmore","200 Tigue Street","Dunmore","Pennsylvania","18512","US","scred","1-570-8662365","Hotel","41.4135275","-75.599166","<MISSING>"
"holidayinn.com","https://www.ihg.com/holidayinn/hotels/us/en/wilkes-barre/avphi/hoteldetail","Holiday Inn Wilkes Barre - East Mountain","600 Wildflower Drive","Wilkes Barre","Pennsylvania","18702","US","avphi","1-570-8221011","Hotel","41.2536","-75.814704","<MISSING>"
"holidayinn.com","https://www.ihg.com/holidayinn/hotels/us/en/erie/eriee/hoteldetail","Holiday Inn Erie","2260 Downs Drive","Erie","Pennsylvania","16509","US","eriee","1-814-2050271","Hotel","42.0490559","-80.0894759","<MISSING>"
"holidayinn.com","https://www.ihg.com/holidayinn/hotels/us/en/grantville/grvpa/hoteldetail","Holiday Inn Harrisburg (Hershey Area) I-81","604 Station Road","Grantville","Pennsylvania","17028","US","grvpa","1-717-4690661","Hotel","40.380127","-76.66585","<MISSING>"
"holidayinn.com","https://www.ihg.com/holidayinn/hotels/us/en/middletown/mdtmt/hoteldetail","Holiday Inn Harrisburg East","815 South Eisenhower Boulevard","Middletown","Pennsylvania","17057","US","mdtmt","1-717-9391600","Hotel","40.218535","-76.790837","<MISSING>"
"holidayinn.com","https://www.ihg.com/holidayinn/hotels/us/en/lancaster/lnsch/hoteldetail","Holiday Inn Lancaster","26 East Chestnut Street","Lancaster","Pennsylvania","17602","US","lnsch","1-717-3940900","Hotel","40.04123209999999","-76.3052338","<MISSING>"
"holidayinn.com","https://www.ihg.com/holidayinn/hotels/us/en/johnstown/jstmk/hoteldetail","Holiday Inn Johnstown-Downtown","250 Market Street","Johnstown","Pennsylvania","15901","US","jstmk","1-814-5357777","Hotel","40.325033","-78.920599","<MISSING>"
"holidayinn.com","https://www.ihg.com/holidayinn/hotels/us/en/morgantown/mgnpa/hoteldetail","Holiday Inn Morgantown - Reading Area","6170 Morgantown Rd.","Morgantown","Pennsylvania","19543","US","mgnpa","1-610-2863000","Hotel","40.158749","-75.891228","<MISSING>"
"holidayinn.com","https://www.ihg.com/holidayinn/hotels/us/en/williamsport/iptpp/hoteldetail","Holiday Inn Williamsport","100 Pine Street","Williamsport","Pennsylvania","17701","US","iptpp","1-570-3278231","Hotel","41.239572","-77.000897","<MISSING>"
"holidayinn.com","https://www.ihg.com/holidayinn/hotels/us/en/saunderstown/sknri/hoteldetail","Holiday Inn South Kingstown (Newport Area)","3009 Tower Hill Road","Saunderstown","Rhode Island","02874","US","sknri","1-401-7891051","Hotel","41.4947","-71.4565","<MISSING>"
"holidayinn.com","https://www.ihg.com/holidayinn/hotels/us/en/anderson/andct/hoteldetail","Holiday Inn Anderson","3509 Clemson Blvd","Anderson","South Carolina","29621","US","andct","1-864-2261000","Hotel","34.550487","-82.675909","<MISSING>"
"holidayinn.com","https://www.ihg.com/holidayinn/hotels/us/en/beaufort/bftbs/hoteldetail","Holiday Inn & Suites Beaufort @ Highway 21","2225 Boundary St.","Beaufort","South Carolina","29902","US","bftbs","1-843-3793100","Hotel","32.441479","-80.695439","<MISSING>"
"holidayinn.com","https://www.ihg.com/holidayinn/hotels/us/en/charleston/chsms/hoteldetail","Holiday Inn Charleston Historic Downtown","425 Meeting Street","Charleston","South Carolina","29403","US","chsms","1-843-7182327","Hotel","32.793004","-79.938468","<MISSING>"
"holidayinn.com","https://www.ihg.com/holidayinn/hotels/us/en/charleston/chsrv/hoteldetail","Holiday Inn Charleston-Riverview","301 Savannah Hwy","Charleston","South Carolina","29407","US","chsrv","1-843-5567100","Hotel","32.781335","-79.965808","<MISSING>"
"holidayinn.com","https://www.ihg.com/holidayinn/hotels/us/en/columbia/caehd/hoteldetail","Holiday Inn Columbia - Downtown","1233 Washington Street","Columbia","South Carolina","29201","US","caehd","1-803-2054950","Hotel","34.004495","-81.0338609","<MISSING>"
"holidayinn.com","https://www.ihg.com/holidayinn/hotels/us/en/greenville/gspwd/hoteldetail","Holiday Inn Greenville - Woodruff Road","25 Old Country Road","Greenville","South Carolina","29607","US","gspwd","1-864-7202600","Hotel","34.83035","-82.30248","<MISSING>"
"holidayinn.com","https://www.ihg.com/holidayinn/hotels/us/en/surfside-beach/myrsb/hoteldetail","Holiday Inn Oceanfront @ Surfside Beach","1601 N Ocean Blvd","Surfside Beach","South Carolina","29575","US","myrsb","1-843-2385601","Hotel","33.616908","-78.961971","<MISSING>"
"holidayinn.com","https://www.ihg.com/holidayinn/hotels/us/en/santee/sntee/hoteldetail","Holiday Inn Santee","139 Bradford Blvd.","Santee","South Carolina","29142","US","sntee","1-803-8549800","Hotel","33.4837","-80.4768","<MISSING>"
"holidayinn.com","https://www.ihg.com/holidayinn/hotels/us/en/spearfish/blkno/hoteldetail","Holiday Inn Spearfish-Convention Center","305 N. 27th Street","Spearfish","South Dakota","57783-0399","US","blkno","1-605-6424683","Hotel","44.4801","-103.8142","<MISSING>"
"holidayinn.com","https://www.ihg.com/holidayinn/hotels/us/en/rapid-city/rapcc/hoteldetail","Holiday Inn Rapid City-Rushmore Plaza","505 North Fifth St","Rapid City","South Dakota","57701","US","rapcc","1-605-3484000","Hotel","44.088183","-103.221876","<MISSING>"
"holidayinn.com","https://www.ihg.com/holidayinn/hotels/us/en/sioux-falls/fsddt/hoteldetail","Holiday Inn Sioux Falls-City Centre","100 West 8th St","Sioux Falls","South Dakota","57104","US","fsddt","1-605-3392000","Hotel","43.54865","-96.726808","<MISSING>"
"holidayinn.com","https://www.ihg.com/holidayinn/hotels/us/en/sioux-falls/fsdrs/hoteldetail","Holiday Inn & Suites Sioux Falls - Airport","2040 W. Russell Street","Sioux Falls","South Dakota","57104","US","fsdrs","1-605-3312040","Hotel","43.564982","-96.755494","<MISSING>"
"holidayinn.com","https://www.ihg.com/holidayinn/hotels/us/en/brentwood/bnapk/hoteldetail","Holiday Inn Franklin - Cool Springs","1738 Carothers Parkway","Brentwood","Tennessee","37027","US","bnapk","1-615-2778700","Hotel","35.961325","-86.801788","<MISSING>"
"holidayinn.com","https://www.ihg.com/holidayinn/hotels/us/en/nashville/bnavb/hoteldetail","Holiday Inn Nashville-Vanderbilt (Dwtn)","2613 West End Ave","Nashville","Tennessee","37203","US","bnavb","1-615-3274707","Hotel","36.146163","-86.810021","<MISSING>"
"holidayinn.com","https://www.ihg.com/holidayinn/hotels/us/en/nashville/bnash/hoteldetail","Holiday Inn & Suites Nashville Dtwn - Conv Ctr","415 4th Avenue South","Nashville","Tennessee","37201","US","bnash","1-615-2650355","Hotel","36.1562034","-86.7743232","<MISSING>"
"holidayinn.com","https://www.ihg.com/holidayinn/hotels/us/en/murfreesboro/bnahi/hoteldetail","Holiday Inn Murfreesboro","1453 Silohill Lane","Murfreesboro","Tennessee","37129","US","bnahi","1-615-7515300","Hotel","35.8647646","-86.4523813","<MISSING>"
"holidayinn.com","https://www.ihg.com/holidayinn/hotels/us/en/chattanooga/chadt/hoteldetail","Holiday Inn & Suites Chattanooga Downtown","434 Chestnut Street","Chattanooga","Tennessee","37402","US","chadt","1-423-7775858","Hotel","35.051134","-85.311786","<MISSING>"
"holidayinn.com","https://www.ihg.com/holidayinn/hotels/us/en/chattanooga/chatn/hoteldetail","Holiday Inn Chattanooga - Hamilton Place","2232 Center Street","Chattanooga","Tennessee","37421","US","chatn","1-423-4851185","Hotel","35.042519","-85.161034","<MISSING>"
"holidayinn.com","https://www.ihg.com/holidayinn/hotels/us/en/cleveland/chacl/hoteldetail","Holiday Inn Cleveland","110 Interstate Dr NW","Cleveland","Tennessee","37312","US","chacl","1-423-4781212","Hotel","35.1934156","-84.89052939999999","<MISSING>"
"holidayinn.com","https://www.ihg.com/holidayinn/hotels/us/en/cookeville/cjewa/hoteldetail","Holiday Inn Cookeville","1091 South Willow Avenue","Cookeville","Tennessee","38501","US","cjewa","1-931-5594539","Hotel","36.138407","-85.529003","<MISSING>"
"holidayinn.com","https://www.ihg.com/holidayinn/hotels/us/en/pigeon-forge/pgftl/hoteldetail","Holiday Inn & Suites Pigeon Forge Convention Center","2905 Parkway","Pigeon Forge","Tennessee","37863","US","pgftl","1-865-4282525","Hotel","35.79772","-83.56522199999999","<MISSING>"
"holidayinn.com","https://www.ihg.com/holidayinn/hotels/us/en/johnson-city/jncws/hoteldetail","Holiday Inn Johnson City","101 W. Springbrook Drive","Johnson City","Tennessee","37604","US","jncws","1-423-2824611","Hotel","36.349803","-82.381757","<MISSING>"
"holidayinn.com","https://www.ihg.com/holidayinn/hotels/us/en/bristol/brlva/hoteldetail","Holiday Inn Bristol Conference Ctr","3005 Linden Drive","Bristol","Virginia","24202","US","brlva","1-276-4664100","Hotel","36.628508","-82.129634","<MISSING>"
"holidayinn.com","https://www.ihg.com/holidayinn/hotels/us/en/knoxville/tysmr/hoteldetail","Holiday Inn Knoxville N - Merchant Drive","5634 Merchants Center Boulevard","Knoxville","Tennessee","37912","US","tysmr","1-865-6878989","Hotel","36.011556","-83.977278","<MISSING>"
"holidayinn.com","https://www.ihg.com/holidayinn/hotels/us/en/knoxville/tyscb/hoteldetail","Holiday Inn Knoxville West- Cedar Bluff Rd","9134 Executive Park Drive","Knoxville","Tennessee","37923","US","tyscb","1-865-6931011","Hotel","35.9198","-84.0916","<MISSING>"
"holidayinn.com","https://www.ihg.com/holidayinn/hotels/us/en/abilene/abinu/hoteldetail","Holiday Inn Abilene - North College Area","3525 West Lake Road","Abilene","Texas","79601","US","abinu","1-325-6731400","Hotel","32.49257","-99.723089","<MISSING>"
"holidayinn.com","https://www.ihg.com/holidayinn/hotels/us/en/addison/dalqr/hoteldetail","Holiday Inn & Suites Dallas-Addison","4355 Beltway Drive","Addison","Texas","75001","US","dalqr","1-972-5037800","Hotel","32.952045","-96.837081","<MISSING>"
"holidayinn.com","https://www.ihg.com/holidayinn/hotels/us/en/richardson/dalrs/hoteldetail","Holiday Inn Dallas-Richardson","1655 N. Central Expressway","Richardson","Texas","75080","US","dalrs","1-972-2381900 +7501","Hotel","32.971","-96.7195","<MISSING>"
"holidayinn.com","https://www.ihg.com/holidayinn/hotels/us/en/the-colony/dfwct/hoteldetail","Holiday Inn Plano - The Colony","4301 Paige Road","The Colony","Texas","75056","US","dfwct","1-469-3848165","Hotel","33.075359","-96.87659","<MISSING>"
"holidayinn.com","https://www.ihg.com/holidayinn/hotels/us/en/irving/dfwiv/hoteldetail","Holiday Inn Irving - Las Colinas","110 W. John Carpenter Freeway","Irving","Texas","75039","US","dfwiv","1-972-6501600","Hotel","32.868573","-96.945216","<MISSING>"
"holidayinn.com","https://www.ihg.com/holidayinn/hotels/us/en/dallas/dalhh/hoteldetail","Holiday Inn Dallas Market Center","4500 Harry Hines Boulevard","Dallas","Texas","75219","US","dalhh","11-214-2193333","Hotel","32.805804","-96.8288","<MISSING>"
"holidayinn.com","https://www.ihg.com/holidayinn/hotels/us/en/garland/dalgl/hoteldetail","Holiday Inn Dallas - Garland","5110 N. President George Bush Hwy","Garland","Texas","75040","US","dalgl","1-972-4951144","Hotel","32.96315","-96.63755","<MISSING>"
"holidayinn.com","https://www.ihg.com/holidayinn/hotels/us/en/fort-worth/dfwfw/hoteldetail","Holiday Inn Dallas-Fort Worth Airport S","14320 Centre Station Drive","Fort Worth","Texas","76155","US","dfwfw","1-817-3991800 +7806","Hotel","32.826099","-97.0526","<MISSING>"
"holidayinn.com","https://www.ihg.com/holidayinn/hotels/us/en/mckinney/mcktx/hoteldetail","Holiday Inn & Suites McKinney - N Allen","3220 Craig Drive","Mckinney","Texas","75070","US","mcktx","1-469-9522044","Hotel","33.170371","-96.643734","<MISSING>"
"holidayinn.com","https://www.ihg.com/holidayinn/hotels/us/en/bedford/dfwwe/hoteldetail","Holiday Inn Dallas DFW Airport Area West","3005 Airport Freeway","Bedford","Texas","76021","US","dfwwe","1-817-6846300 +5","Hotel","32.838469","-97.119582","<MISSING>"
"holidayinn.com","https://www.ihg.com/holidayinn/hotels/us/en/trophy-club/dfwtc/hoteldetail","Holiday Inn Trophy Club","725 Plaza Drive","Trophy Club","Texas","76262","US","dfwtc","1-817-4909700","Hotel","32.986292","-97.168224","<MISSING>"
"holidayinn.com","https://www.ihg.com/holidayinn/hotels/us/en/arlington/arlel/hoteldetail","Holiday Inn Arlington NE-Rangers Ballpark","1311 Wet N Wild Way","Arlington","Texas","76011","US","arlel","1-817-4602500","Hotel","32.760182","-97.092998","<MISSING>"
"holidayinn.com","https://www.ihg.com/holidayinn/hotels/us/en/fort-worth/ftwgt/hoteldetail","Holiday Inn Fort Worth - Alliance","11120 Moriah Drive","Fort Worth","Texas","76177","US","ftwgt","1-682-5937505","Hotel","32.934925","-97.311109","<MISSING>"
"holidayinn.com","https://www.ihg.com/holidayinn/hotels/us/en/fort-worth/ftwtx/hoteldetail","Holiday Inn Fort Worth North-Fossil Creek","4635 Gemini Place","Fort Worth","Texas","76106","US","ftwtx","1-817-6240002","Hotel","32.825167","-97.314899","<MISSING>"
"holidayinn.com","https://www.ihg.com/holidayinn/hotels/us/en/amarillo/amaea/hoteldetail","Holiday Inn Amarillo East","7799 I-40 East","Amarillo","Texas","79118","US","amaea","1-806-8039977","Hotel","35.194778","-101.751944","<MISSING>"
"holidayinn.com","https://www.ihg.com/holidayinn/hotels/us/en/amarillo/amars/hoteldetail","Holiday Inn Amarillo West Medical Center","8231 Amarillo Boulevard West","Amarillo","Texas","79124","US","amars","1-806-3224777","Hotel","35.19138","-101.925143","<MISSING>"
"holidayinn.com","https://www.ihg.com/holidayinn/hotels/us/en/austin/austl/hoteldetail","Holiday Inn Austin-Town Lake","20 North Ih-35","Austin","Texas","78701","US","austl","1-512-4728211 +0","Hotel","30.25411","-97.736919","<MISSING>"
"holidayinn.com","https://www.ihg.com/holidayinn/hotels/us/en/austin/ausmf/hoteldetail","Holiday Inn Austin Midtown","6000 Middle Fiskville Road","Austin","Texas","78752","US","ausmf","1-512-4515757","Hotel","30.32252","-97.710754","<MISSING>"
"holidayinn.com","https://www.ihg.com/holidayinn/hotels/us/en/austin/aushi/hoteldetail","Holiday Inn Austin Airport","6711 East Ben White Boulevard","Austin","Texas","78744","US","aushi","1-512-3858400","Hotel","30.21331","-97.70535","<MISSING>"
"holidayinn.com","https://www.ihg.com/holidayinn/hotels/us/en/round-rock/ausrd/hoteldetail","Holiday Inn Austin North - Round Rock","2370 Chisholm Trail","Round Rock","Texas","78681","US","ausrd","1-512-2467000","Hotel","30.538186","-97.696081","<MISSING>"
"holidayinn.com","https://www.ihg.com/holidayinn/hotels/us/en/beaumont/bpttx/hoteldetail","Holiday Inn Beaumont East-Medical Ctr Area","2095 North 11th St","Beaumont","Texas","77703","US","bpttx","1-409-8998975","Hotel","30.097746","-94.130095","<MISSING>"
"holidayinn.com","https://www.ihg.com/holidayinn/hotels/us/en/beaumont/bptwd/hoteldetail","Holiday Inn & Suites Beaumont-Plaza (I-10 & Walden)","3950 I-10 South & Walden Rd","Beaumont","Texas","77705","US","bptwd","1-409-8425995","Hotel","30.038797","-94.157742","<MISSING>"
"holidayinn.com","https://www.ihg.com/holidayinn/hotels/us/en/brownsville/brobv/hoteldetail","Holiday Inn Brownsville","651 Sunrise Blvd","Brownsville","Texas","78526","US","brobv","1-956-5413332","Hotel","25.9623753","-97.5082661","<MISSING>"
"holidayinn.com","https://www.ihg.com/holidayinn/hotels/us/en/san-marcos/smmhi/hoteldetail","Holiday Inn San Marcos-Convention CTR Area","105 Bintu Drive","San Marcos","Texas","78666","US","smmhi","1-512-8051000","Hotel","29.858766","-97.951554","<MISSING>"
"holidayinn.com","https://www.ihg.com/holidayinn/hotels/us/en/san-antonio/satkj/hoteldetail","Holiday Inn San Antonio N - Stone Oak Area","19280 Redland Road","San Antonio","Texas","78259","US","satkj","1-210-2988820","Hotel","29.621303","-98.464083","<MISSING>"
"holidayinn.com","https://www.ihg.com/holidayinn/hotels/us/en/san-antonio/satsi/hoteldetail","Holiday Inn & Suites San Antonio Northwest","5535 University Heights Blvd.","San Antonio","Texas","78249","US","satsi","1-210-5492434","Hotel","29.568945","-98.594","<MISSING>"
"holidayinn.com","https://www.ihg.com/holidayinn/hotels/us/en/channelview/housr/hoteldetail","Holiday Inn Houston East-Channelview","16311 East Freeway","Channelview","Texas","77530","US","housr","1-281-8647457","Hotel","29.784063","-95.110157","<MISSING>"
"holidayinn.com","https://www.ihg.com/holidayinn/hotels/us/en/houston/houah/hoteldetail","Holiday Inn Houston-Hobby Airport","8611 Airport Boulevard","Houston","Texas","77061","US","houah","1-713-9468900","Hotel","29.655509","-95.26377","<MISSING>"
"holidayinn.com","https://www.ihg.com/holidayinn/hotels/us/en/houston/houhi/hoteldetail","Holiday Inn Houston Downtown","1616 Main Street","Houston","Texas","77002","US","houhi","1-713-6588888","Hotel","29.752018","-95.368971","<MISSING>"
"holidayinn.com","https://www.ihg.com/holidayinn/hotels/us/en/webster/houbb/hoteldetail","Holiday Inn Houston-Webster","302 W. Bay Area Blvd","Webster","Texas","77598","US","houbb","1-281-3356272","Hotel","29.547434","-95.130567","<MISSING>"
"holidayinn.com","https://www.ihg.com/holidayinn/hotels/us/en/houston/houap/hoteldetail","Holiday Inn Houston-Intercontinental Arpt","15222 JFK Boulevard","Houston","Texas","77032","US","houap","1-281-4492311","Hotel","29.93848","-95.331269","<MISSING>"
"holidayinn.com","https://www.ihg.com/holidayinn/hotels/us/en/kemah/kemtx/hoteldetail","Holiday Inn Kemah (NEAR BOARDWALK)","805 Harris Avenue","Kemah","Texas","77565","US","kemtx","1-281-3340003","Hotel","29.54093","-95.01905","<MISSING>"
"holidayinn.com","https://www.ihg.com/holidayinn/hotels/us/en/humble/houhh/hoteldetail","Holiday Inn Houston NE - Bush Airport Area","18555 Kenswick Drive","Humble","Texas","77338","US","houhh","1-281-5403600","Hotel","29.987057","-95.295927","<MISSING>"
"holidayinn.com","https://www.ihg.com/holidayinn/hotels/us/en/houston/houad/hoteldetail","Holiday Inn Houston S - NRG Area - Med Ctr","8111 Kirby Dr.","Houston","Texas","77054","US","houad","1-713-7901900","Hotel","29.69036","-95.41251","<MISSING>"
"holidayinn.com","https://www.ihg.com/holidayinn/hotels/us/en/houston/houwt/hoteldetail","Holiday Inn NW Houston Beltway 8","3539 N Sam Houston Parkway West","Houston","Texas","77086","US","houwt","1-281-4471915","Hotel","29.93604","-95.4815914","<MISSING>"
"holidayinn.com","https://www.ihg.com/holidayinn/hotels/us/en/houston/houto/hoteldetail","Holiday Inn Houston - Westchase","10609 Westpark Drive","Houston","Texas","77042","US","houto","1-713-5325400","Hotel","29.721835","-95.55982","<MISSING>"
"holidayinn.com","https://www.ihg.com/holidayinn/hotels/us/en/houston/houcr/hoteldetail","Holiday Inn & Suites Houston West - Westway Park","4606 Westway Park Blvd.","Houston","Texas","77041","US","houcr","1-713-9968200","Hotel","29.833743","-95.559559","<MISSING>"
"holidayinn.com","https://www.ihg.com/holidayinn/hotels/us/en/houston/housw/hoteldetail","Holiday Inn Houston SW - Sugar Land Area","11160 Southwest Freeway","Houston","Texas","77031","US","housw","1-281-5301400","Hotel","29.658047","-95.561883","<MISSING>"
"holidayinn.com","https://www.ihg.com/holidayinn/hotels/us/en/houston/houac/hoteldetail","Holiday Inn & Suites Houston NW - Willowbrook","18530 State Highway 249","Houston","Texas","77070","US","houac","1-281-6121850","Hotel","29.966943","-95.555334","<MISSING>"
"holidayinn.com","https://www.ihg.com/holidayinn/hotels/us/en/college-station/cllsp/hoteldetail","Holiday Inn & Suites College Station-Aggieland","2500 Earl Rudder Freeway And Hwy 6","College Station","Texas","77840","US","cllsp","1-979-4858300","Hotel","30.618","-96.2963","<MISSING>"
"holidayinn.com","https://www.ihg.com/holidayinn/hotels/us/en/corpus-christi/crpmb/hoteldetail","Holiday Inn Corpus Christi Downtown Marina","707 North Shoreline Boulevard","Corpus Christi","Texas","78401","US","crpmb","1-361-8821700","Hotel","27.79826","-97.39147","<MISSING>"
"holidayinn.com","https://www.ihg.com/holidayinn/hotels/us/en/corpus-christi/crpap/hoteldetail","Holiday Inn Corpus Christi Arpt & Conv Ctr","5549 Leopard Street","Corpus Christi","Texas","78408","US","crpap","1-361-2895100","Hotel","27.7975","-97.465371","<MISSING>"
"holidayinn.com","https://www.ihg.com/holidayinn/hotels/us/en/el-paso/elpsl/hoteldetail","Holiday Inn El Paso West – Sunland Park","900 Sunland Park Drive","El Paso","Texas","79922","US","elpsl","1-915-8332900","Hotel","31.8142","-106.5513","<MISSING>"
"holidayinn.com","https://www.ihg.com/holidayinn/hotels/us/en/el-paso/elptx/hoteldetail","Holiday Inn El Paso Airport","6351 Gateway Boulevard West","El Paso","Texas","79925","US","elptx","1-915-7724088","Hotel","31.782335","-106.404155","<MISSING>"
"holidayinn.com","https://www.ihg.com/holidayinn/hotels/us/en/tyler/tyrsb/hoteldetail","Holiday Inn Tyler - Conference Center","5701 South Broadway","Tyler","Texas","75703","US","tyrsb","1-903-5615800","Hotel","32.287578","-95.3038","<MISSING>"
"holidayinn.com","https://www.ihg.com/holidayinn/hotels/us/en/houston/houpw/hoteldetail","Holiday Inn HOU Energy Corridor Eldridge","1112 ELDRIDGE PARKWAY","Houston","Texas","77077","US","houpw","1-281-6796900","Hotel","29.768521","-95.623414","<MISSING>"
"holidayinn.com","https://www.ihg.com/holidayinn/hotels/us/en/katy/houtt/hoteldetail","Holiday Inn & Suites Houston West - Katy Mills","25406 Katy Mills Parkway","Katy","Texas","77494","US","houtt","1-281-7122363","Hotel","29.7753708","-95.8157039","<MISSING>"
"holidayinn.com","https://www.ihg.com/holidayinn/hotels/us/en/killeen/kilen/hoteldetail","Holiday Inn Killeen - Fort Hood","300 East Central Texas Expressway","Killeen","Texas","76541","US","kilen","1-254-6905511","Hotel","31.098952","-97.741155","<MISSING>"
"holidayinn.com","https://www.ihg.com/holidayinn/hotels/us/en/temple/tpltl/hoteldetail","Holiday Inn Temple-Belton","5247 S. General Bruce Dr","Temple","Texas","76502","US","tpltl","1-254-7785511","Hotel","31.081154","-97.410543","<MISSING>"
"holidayinn.com","https://www.ihg.com/holidayinn/hotels/us/en/longview/gggmc/hoteldetail","Holiday Inn Longview - North","300 Tuttle Circle","Longview","Texas","75605","US","gggmc","1-903-6636464","Hotel","32.5437","-94.7515","<MISSING>"
"holidayinn.com","https://www.ihg.com/holidayinn/hotels/us/en/lubbock/lbbhs/hoteldetail","Holiday Inn Lubbock South","6107 Justice Avenue","Lubbock","Texas","79424","US","lbbhs","1-806-7224466","Hotel","33.537657","-101.95025","<MISSING>"
"holidayinn.com","https://www.ihg.com/holidayinn/hotels/us/en/mcallen/mfehd/hoteldetail","Holiday Inn McAllen – Medical Center Area","612 West Expressway 83","McAllen","Texas","78501","US","mfehd","1-956-6273010","Hotel","26.189655","-98.228613","<MISSING>"
"holidayinn.com","https://www.ihg.com/holidayinn/hotels/us/en/odessa/odsjs/hoteldetail","Holiday Inn Odessa","5275 East 42nd Street","Odessa","Texas","79762","US","odsjs","1-432-3665900","Hotel","31.896008","-102.323287","<MISSING>"
"holidayinn.com","https://www.ihg.com/holidayinn/hotels/us/en/san-antonio/satrw/hoteldetail","Holiday Inn San Antonio-Riverwalk","217 North St. Mary's Street","San Antonio","Texas","78205-2303","US","satrw","1-210-2242500","Hotel","29.42583","-98.491319","<MISSING>"
"holidayinn.com","https://www.ihg.com/holidayinn/hotels/us/en/san-antonio/satal/hoteldetail","Holiday Inn San Antonio-Dwtn (Market Sq)","318 West César E. Chávez Boulevard","San Antonio","Texas","78204","US","satal","1-210-2253211","Hotel","29.421131","-98.499193","<MISSING>"
"holidayinn.com","https://www.ihg.com/holidayinn/hotels/us/en/san-antonio/satof/hoteldetail","Holiday Inn San Antonio NW - Seaworld Area","10135 State Highway 151","San Antonio","Texas","78251","US","satof","1-210-5202508","Hotel","29.455287","-98.688293","<MISSING>"
"holidayinn.com","https://www.ihg.com/holidayinn/hotels/us/en/waco/actup/hoteldetail","Holiday Inn & Suites Waco Northwest","1801 Development Boulevard","Waco","Texas","76705","US","actup","1-254-7999997","Hotel","31.60612","-97.101666","<MISSING>"
"holidayinn.com","https://www.ihg.com/holidayinn/hotels/us/en/st-george/sgudx/hoteldetail","Holiday Inn St. George Conv Ctr","1808 South Crosby Way","Saint George","Utah","84790","US","sgudx","1-435-6288007","Hotel","37.075949","-113.579363","<MISSING>"
"holidayinn.com","https://www.ihg.com/holidayinn/hotels/us/en/salt-lake-city/slcff/hoteldetail","Holiday Inn & Suites Salt Lake City-Airport West","5001 W. Wiley Post Way","Salt Lake City","Utah","84116","US","slcff","1-801-7411800","Hotel","40.773474","-112.010402","<MISSING>"
"holidayinn.com","https://www.ihg.com/holidayinn/hotels/us/en/south-jordan/slcsj/hoteldetail","Holiday Inn South Jordan - SLC South","10499 S. Jordan Gateway","South Jordan","Utah","84095","US","slcsj","1-801-5531151","Hotel","40.56135","-111.902645","<MISSING>"
"holidayinn.com","https://www.ihg.com/holidayinn/hotels/us/en/rutland/rutvt/hoteldetail","Holiday Inn Rutland-Killington Area","476 Holiday Drive","Rutland","Vermont","05701","US","rutvt","1-802-7751911","Hotel","43.5834","-72.9683","<MISSING>"
"holidayinn.com","https://www.ihg.com/holidayinn/hotels/us/en/south-burlington/btvvt/hoteldetail","Holiday Inn Burlington","1068 Williston Road","South Burlington","Vermont","05403","US","btvvt","1-802-8636363","Hotel","44.469012","-73.180727","<MISSING>"
"holidayinn.com","https://www.ihg.com/holidayinn/hotels/us/en/charlottesville/choso/hoteldetail","Holiday Inn Charlottesville-Monticello","1200 5th Street Ext., (I-64 And Route 631)","Charlottesville","Virginia","22902","US","choso","1-434-9775100 +0000","Hotel","38.0108","-78.5044","<MISSING>"
"holidayinn.com","https://www.ihg.com/holidayinn/hotels/us/en/charlottesville/chonu/hoteldetail","Holiday Inn Charlottesville-Univ Area","1901 Emmet Street","Charlottesville","Virginia","22901","US","chonu","1-434-9777700","Hotel","38.0623","-78.492","<MISSING>"
"holidayinn.com","https://www.ihg.com/holidayinn/hotels/us/en/christiansburg/csbnf/hoteldetail","Holiday Inn Christiansburg Blacksburg","99 Bradley Drive","Christiansburg","Virginia","24073","US","csbnf","1-540-3818100","Hotel","37.162087","-80.42597","<MISSING>"
"holidayinn.com","https://www.ihg.com/holidayinn/hotels/us/en/roanoke/roatw/hoteldetail","Holiday Inn Roanoke-Tanglewood-Rt 419&I581","4468 Starkey Rd.","Roanoke","Virginia","24018","US","roatw","1-540-7744400","Hotel","37.2271","-79.9815","<MISSING>"
"holidayinn.com","https://www.ihg.com/holidayinn/hotels/us/en/roanoke/roaod/hoteldetail","Holiday Inn Roanoke - Valley View","3315 Ordway Drive","Roanoke","Virginia","24017","US","roaod","1-540-3624500","Hotel","37.310159","-79.980281","<MISSING>"
"holidayinn.com","https://www.ihg.com/holidayinn/hotels/us/en/colonial-heights/riccv/hoteldetail","Holiday Inn Petersburg North- Fort Lee","401 East Roslyn Rd.","Colonial Heights","Virginia","23834","US","riccv","1-804-5205880","Hotel","37.2441","-77.3907","<MISSING>"
"holidayinn.com","https://www.ihg.com/holidayinn/hotels/us/en/fredericksburg/mnzfb/hoteldetail","Holiday Inn Fredericksburg Conference Ctr","20 Sanford Drive","Fredericksburg","Virginia","22406","US","mnzfb","1-540-3688000","Hotel","38.3423489","-77.4989229","<MISSING>"
"holidayinn.com","https://www.ihg.com/holidayinn/hotels/us/en/front-royal/ftryl/hoteldetail","Holiday Inn & Suites Front Royal Blue Ridge Shadows","111 Hospitality Drive","Front Royal","Virginia","22630","US","ftryl","1-540-6313050","Hotel","38.987835","-78.181501","<MISSING>"
"holidayinn.com","https://www.ihg.com/holidayinn/hotels/us/en/winchester/wnceb/hoteldetail","Holiday Inn Winchester SE-Historic Gateway","333 Front Royal Pike","Winchester","Virginia","22602","US","wnceb","1-540-6673300","Hotel","39.155667","-78.160713","<MISSING>"
"holidayinn.com","https://www.ihg.com/holidayinn/hotels/us/en/newport-news/phfop/hoteldetail","Holiday Inn Newport News - Hampton","980 Omni Boulevard","Newport News","Virginia","23606","US","phfop","1-757-2232110","Hotel","37.08972","-76.461727","<MISSING>"
"holidayinn.com","https://www.ihg.com/holidayinn/hotels/us/en/williamsburg/wbgbr/hoteldetail","Holiday Inn & Suites Williamsburg-Historic Gateway","515 Bypass Road","Williamsburg","Virginia","23185","US","wbgbr","1-757-2299990","Hotel","37.284684","-76.711388","<MISSING>"
"holidayinn.com","https://www.ihg.com/holidayinn/hotels/us/en/virginia-beach/orfgr/hoteldetail","Holiday Inn Virginia Beach - Norfolk","5655 Greenwich Rd","Virginia Beach","Virginia","23462","US","orfgr","1-757-4994400","Hotel","36.844252","-76.181347","<MISSING>"
"holidayinn.com","https://www.ihg.com/holidayinn/hotels/us/en/staunton/shdva/hoteldetail","Holiday Inn Staunton Conference Center","152 Fairway Lane","Staunton","Virginia","24401","US","shdva","1-540-2486020","Hotel","38.16886","-79.01149","<MISSING>"
"holidayinn.com","https://www.ihg.com/holidayinn/hotels/us/en/virginia-beach/orfat/hoteldetail","Holiday Inn Va Beach-Oceanside (21st St)","2101 Atlantic Ave.","Virginia Beach","Virginia","23451","US","orfat","1-757-4911500","Hotel","36.84923","-75.97535","<MISSING>"
"holidayinn.com","https://www.ihg.com/holidayinn/hotels/us/en/virginia-beach/orfob/hoteldetail","Holiday Inn & Suites Virginia Beach - North Beach","3900 Atlantic Avenue","Virginia Beach","Virginia","23451","US","orfob","1-757-4281711","Hotel","36.867001","-75.980309","<MISSING>"
"holidayinn.com","https://www.ihg.com/holidayinn/hotels/us/en/martinsburg/mrbwv/hoteldetail","Holiday Inn Martinsburg","301 Foxcroft Avenue","Martinsburg","West Virginia","25401","US","mrbwv","1-304-2675500","Hotel","39.4601","-77.9874","<MISSING>"
"holidayinn.com","https://www.ihg.com/holidayinn/hotels/us/en/bellingham/blihi/hoteldetail","Holiday Inn & Suites Bellingham","4260 Mitchell Way","Bellingham","Washington","98226","US","blihi","1-360-7466844","Hotel","48.796079","-122.530689","<MISSING>"
"holidayinn.com","https://www.ihg.com/holidayinn/hotels/us/en/bothell/seabh/hoteldetail","Holiday Inn & Suites Bothell - Seattle Northeast","3850 Monte Villa Parkway","Bothell","Washington","98021","US","seabh","1-425-3989700","Hotel","47.7773695","-122.1809773","<MISSING>"
"holidayinn.com","https://www.ihg.com/holidayinn/hotels/us/en/seattle/seasc/hoteldetail","Holiday Inn Seattle Downtown - Lake Union","211 Dexter Avenue North","Seattle","Washington","98109","US","seasc","1-206-7288123","Hotel","47.619843","-122.342383","<MISSING>"
"holidayinn.com","https://www.ihg.com/holidayinn/hotels/us/en/clarkston/lwsck/hoteldetail","Holiday Inn Clarkston - Lewiston","700 Port Drive","Clarkston","Washington","99403","US","lwsck","1-509-7589500","Hotel","46.425209","-117.0470649","<MISSING>"
"holidayinn.com","https://www.ihg.com/holidayinn/hotels/us/en/richland/rldgw/hoteldetail","Holiday Inn Richland on the River","802 George Washington Way","Richland","Washington","99352","US","rldgw","1-509-9467611","Hotel","46.2772784","-119.2727774","<MISSING>"
"holidayinn.com","https://www.ihg.com/holidayinn/hotels/us/en/tacoma/tiwto/hoteldetail","Holiday Inn Tacoma Mall","8402 South Hosmer Street","Tacoma","Washington","98444","US","tiwto","1-253-5481212","Hotel","47.18026620000001","-122.4640523","<MISSING>"
"holidayinn.com","https://www.ihg.com/holidayinn/hotels/us/en/spokane/skash/hoteldetail","Holiday Inn Spokane Airport","1616 S. Windsor Drive","Spokane","Washington","99224","US","skash","1-509-8381170","Hotel","47.6421","-117.4963","<MISSING>"
"holidayinn.com","https://www.ihg.com/holidayinn/hotels/us/en/yakima/ykmyw/hoteldetail","Holiday Inn Yakima","802 East Yakima Avenue","Yakima","Washington","98901","US","ykmyw","1-509-4947000","Hotel","46.604656","-120.49551","<MISSING>"
"holidayinn.com","https://www.ihg.com/holidayinn/hotels/us/en/beckley/bkwhr/hoteldetail","Holiday Inn & Suites Beckley","114 Dry Hill Road","Beckley","West Virginia","25801","US","bkwhr","1-681-2385980","Hotel","37.797163","-81.22268","<MISSING>"
"holidayinn.com","https://www.ihg.com/holidayinn/hotels/us/en/charleston/crwch/hoteldetail","Holiday Inn & Suites Charleston West","400 2nd Avenue SW","Charleston","West Virginia","25303","US","crwch","1-304-7444641","Hotel","38.36546","-81.691399","<MISSING>"
"holidayinn.com","https://www.ihg.com/holidayinn/hotels/us/en/morgantown/mgwpd/hoteldetail","Holiday Inn Morgantown - University Area","1188 Pineview Drive","Morgantown","West Virginia","26505","US","mgwpd","1-304-2416649","Hotel","39.659351","-79.954134","<MISSING>"
"holidayinn.com","https://www.ihg.com/holidayinn/hotels/us/en/weirton/wwvwv/hoteldetail","Holiday Inn Weirton","350 Three Springs Drive","Weirton","West Virginia","26062","US","wwvwv","1-304-7235522","Hotel","40.395431","-80.548493","<MISSING>"
"holidayinn.com","https://www.ihg.com/holidayinn/hotels/us/en/appleton/atwwi/hoteldetail","Holiday Inn Appleton","1565 N Casaloma Drive","Appleton","Wisconsin","54913","US","atwwi","1-920-4410206","Hotel","44.2746204","-88.476789","<MISSING>"
"holidayinn.com","https://www.ihg.com/holidayinn/hotels/us/en/green-bay/grbhw/hoteldetail","Holiday Inn & Suites Green Bay Stadium","2785 Ramada Way","Green Bay","Wisconsin","54304","US","grbhw","1-920-5694248","Hotel","44.474737","-88.077363","<MISSING>"
"holidayinn.com","https://www.ihg.com/holidayinn/hotels/us/en/eau-claire/eauhi/hoteldetail","Holiday Inn Eau Claire South I-94","4751 Owen Ayres Court","Eau Claire","Wisconsin","54701","US","eauhi","1-715-8309889","Hotel","44.767477","-91.43","<MISSING>"
"holidayinn.com","https://www.ihg.com/holidayinn/hotels/us/en/lacrosse/lsewi/hoteldetail","Holiday Inn & Suites La Crosse - Downtown","200 Pearl Street","La Crosse","Wisconsin","54602","US","lsewi","1-608-7844444","Hotel","43.8121","-91.2538","<MISSING>"
"holidayinn.com","https://www.ihg.com/holidayinn/hotels/us/en/madison/msnbh/hoteldetail","Holiday Inn & Suites Madison West","1109 Fourier Drive","Madison","Wisconsin","53717","US","msnbh","1-608-8260500","Hotel","43.082","-89.5238","<MISSING>"
"holidayinn.com","https://www.ihg.com/holidayinn/hotels/us/en/madison/msntc/hoteldetail","Holiday Inn Madison at The American Center","5109 W Terrace Dr","Madison","Wisconsin","53718","US","msntc","1-608-2494220","Hotel","43.1427","-89.2955","<MISSING>"
"holidayinn.com","https://www.ihg.com/holidayinn/hotels/us/en/manitowoc/mtwwi/hoteldetail","Holiday Inn Manitowoc","4601 Calumet Ave.","Manitowoc","Wisconsin","54220","US","mtwwi","1-920-6826000","Hotel","44.073313","-87.712828","<MISSING>"
"holidayinn.com","https://www.ihg.com/holidayinn/hotels/us/en/marshfield/mfiwi/hoteldetail","Holiday Inn Conference Ctr Marshfield","750 South Central Avenue","Marshfield","Wisconsin","54449","US","mfiwi","1-715-4861500","Hotel","44.6611","-90.1784","<MISSING>"
"holidayinn.com","https://www.ihg.com/holidayinn/hotels/us/en/rothschild/wauwi/hoteldetail","Holiday Inn & Suites Wausau-Rothschild","1000 Imperial Avenue","Rothschild","Wisconsin","54474","US","wauwi","1-715-3551111","Hotel","44.8662","-89.6399","<MISSING>"
"holidayinn.com","https://www.ihg.com/holidayinn/hotels/us/en/milwaukee/mkehi/hoteldetail","Holiday Inn Milwaukee Riverfront","4700 N. Port Washington Road","Milwaukee","Wisconsin","53212","US","mkehi","1-414-9626040","Hotel","43.102002","-87.916796","<MISSING>"
"holidayinn.com","https://www.ihg.com/holidayinn/hotels/us/en/milwaukee/mkela/hoteldetail","Holiday Inn & Suites Milwaukee Airport","545 W. Layton Avenue","Milwaukee","Wisconsin","53207","US","mkela","1-414-4824444","Hotel","42.959125","-87.91812","<MISSING>"
"holidayinn.com","https://www.ihg.com/holidayinn/hotels/us/en/pewaukee/pkehi/hoteldetail","Holiday Inn Pewaukee-Milwaukee West","N14 W24140 Tower Place","Pewaukee","Wisconsin","53072","US","pkehi","262-506-6300","Hotel","43.050921","-88.227382","<MISSING>"
"holidayinn.com","https://www.ihg.com/holidayinn/hotels/us/en/stevens-point/steaa/hoteldetail","Holiday Inn Stevens Point - Convention Ctr","1001 Amber Avenue","Stevens Point","Wisconsin","54482","US","steaa","1-715-3440200","Hotel","44.525545","-89.505986","<MISSING>"
"holidayinn.com","https://www.ihg.com/holidayinn/hotels/us/en/casper/cprse/hoteldetail","Holiday Inn Casper East - Medical Center","721 Granite Peak Drive","Casper","Wyoming","82609","US","cprse","1-307-5775000","Hotel","42.840231","-106.220107","<MISSING>"
"holidayinn.com","https://www.ihg.com/holidayinn/hotels/us/en/cody/codwy/hoteldetail","Holiday Inn Cody-At Buffalo Bill Village","1701 Sheridan Ave","Cody","Wyoming","82414","US","codwy","1-307-5875555","Hotel","44.52608","-109.055248","<MISSING>"
"holidayinn.com","https://www.ihg.com/holidayinn/hotels/us/en/laramie/lareg/hoteldetail","Holiday Inn Laramie","204 30th Street","Laramie","Wyoming","82070","US","lareg","1-307-7219000","Hotel","41.309982","-105.557499","<MISSING>"
"holidayinn.com","https://www.ihg.com/holidayinn/hotels/us/en/riverton/riwwy/hoteldetail","Holiday Inn Riverton-Convention Center","900 E. Sunset Blvd","Riverton","Wyoming","82501","US","riwwy","1-307-8568100","Hotel","43.0342","-108.3801","<MISSING>"
"holidayinn.com","https://www.ihg.com/holidayinn/hotels/us/en/rock-springs/rkswy/hoteldetail","Holiday Inn Rock Springs","1675 Sunset Drive","Rock Springs","Wyoming","82901","US","rkswy","1-307-3829200","Hotel","41.5749","-109.2652","<MISSING>"
"holidayinn.com","https://www.ihg.com/holidayinn/hotels/us/en/sheridan/shrwy/hoteldetail","Holiday Inn Sheridan-Convention Center","1809 Sugarland Drive","Sheridan","Wyoming","82801","US","shrwy","1-307-6728931","Hotel","44.7776","-106.9396","<MISSING>"
